DW_LOCALIDADE;region_code;region_name;division;tp_cliente;address_number;city;country;customer_address_1;customer_address_2;state;zip_code
01791696a317bf2b5b0e2669c51aa742b7bacc45fc6f46fc005038afa4040900;5;International;1;International;10013312;Não informado;"";Não informado;Não informado;Não informado;Não informado
c444cfd55152a433dcf4686779a4c434b51f87681986a3763a123294e689e3b0;5;International;1;International;10018352;Não informado;"";Não informado;Não informado;Não informado;Não informado
a13ec71dac8d59bcce2e515e57252bbb7260b2c52b0b72735577d432ef98d92e;5;International;1;International;10022746;A 5102 Anthering;UK;Landstrasse 18;Não informado;Não informado;Não informado
818046ea6a7b14b989d1582460447d5b05a969684af70ce5c119e9517a05597e;5;International;1;International;10002150;Não informado;"";Não informado;Não informado;Não informado;Não informado
f86502eb955cb7c334ebcc280e9ae4e43b16c07aca71883dcda1c47db0630528;5;International;1;International;10019194;Não informado;"";Não informado;Não informado;Não informado;Não informado
ef33babd16c999ae2ad39a8ec0940aab15fabb194844a18398ee6759b41706d9;5;International;1;International;10026868;Valencia;UK;Aut Reg Del Centro Valencia;A Pto Cabello Dist Naguanagua;Não informado;Não informado
1cee39fe4054718e4c5bec926f6be915450281513c6f3c5b78b8d6c9e179db78;5;International;1;International;10018877;Beirut;AU;Dagher Plast Building 17;Baizoob Area;Não informado;Não informado
7c0531990e7e7fa876ea43c7bd35733b395609be04f16f32115ca2277527e0c7;5;International;1;International;10020715;Linares (Jaen);UK;Avda 10 De Mayo S/N;Não informado;Não informado;23700
9759b18660a53e8193203d08d31c74fd278bb2c231346f169f144fb0d753f611;5;International;1;International;10025288;Furstentum;AU;Kirchstrasse 39;FL 9490 Vaduz;Não informado;Não informado
a7e5b4a0124168beb2047a268cf97a7e4dd6a21294a151890327ea72c3ec96c0;5;International;1;International;10026334;Não informado;"";Não informado;Não informado;Não informado;Não informado
01709ed60ecc146b4a80babf7345c8cf5be50a4b945dd9495098c4a3d0d40f3f;5;International;1;International;10011821;Não informado;"";Não informado;Não informado;Não informado;Não informado
823e3814c27b7b2698bdabe03bbf76029eadc2505e628481551482f43b91f00b;5;International;1;International;10002501;Não informado;UK;Não informado;Não informado;Não informado;Não informado
cf9a1faeee55bdc50ae8f24010626e725d4b32cedc499fde66774d83f15e03a0;5;International;1;International;10025239;Não informado;UK;Não informado;Não informado;Não informado;Não informado
18c575294b12ee1db7e5697cb93cce31b075bbe3eb0c5dbb3af7b654019febee;5;International;1;International;10003882;Não informado;"";Não informado;Não informado;Não informado;Não informado
485107acb2571459d151d9e156546d23c99de33cc89853a6a424cf3cf6a1b502;5;International;1;International;10014540;1980 Santiago;UK;Avda Bdo O'Higgins;Não informado;Não informado;Não informado
07eebcbe5f8a46d987ef8cd6b52cf76501d1ddffc746f1f4fa11fe4b2a091373;5;International;1;International;10005043;San Jose;UK;Paseo Colon Calles 34-36;Não informado;Não informado;Não informado
15a3711327a047715db5d51a0eeac31e9921740c789cb45ef43385a15d49c7a3;5;International;1;International;10020672;N-0598 Oslo;IR;Brobekkveien 105;Não informado;Não informado;Não informado
d0acb129d88b9d19f0add6b3c0b248d458696272c6cc36b6568b24b88da72a86;5;International;1;International;10006836;Quito;UK;AV 6 DE DICIEMBRE;N47225 Y Samuel Fritz;Não informado;Não informado
41ddb4367f434182989ddc32505532c77558acfae50d8a9386f670f4a4e9fe1a;5;International;1;International;10012927;Não informado;"";Não informado;Não informado;Não informado;Não informado
b60a7687ddeb7b120698a4146800c2c1aacb541cc0a3304349755281b9596e81;5;International;1;International;10002159;Não informado;"";Não informado;Não informado;Não informado;Não informado
01f308643d31ed43df3513bfaa3fb86f821c52e8426b820583da71b24c5ad98b;5;International;1;International;10024915;Não informado;"";Não informado;Não informado;Não informado;Não informado
42cad8e278f21fc73b9400296a955973b57e814c443661e85b0baed557604645;5;International;1;International;10011052;Não informado;"";Não informado;Não informado;Não informado;Não informado
c21c56ec600d71752343eb3e427ac9ac247ed889002d4a8801b548d66e2ecf00;5;International;1;International;10002144;Não informado;"";Não informado;Não informado;Não informado;Não informado
9120621dfd4704bf7423cbdf6033fa87fe0d6c12c816eb9fca57749274092651;5;International;1;International;10012369;Não informado;"";Não informado;Não informado;Não informado;Não informado
9395b3517ee97655f0f18d884982d89ca1a81fcfe7237b95083587f55b2a0787;5;International;1;International;10013899;Não informado;"";Não informado;Não informado;Não informado;Não informado
d099cb73cb93932c26748409b137fdb701567d9388652dc20099c51d18f686b5;5;International;1;International;10013332;Não informado;"";Não informado;Não informado;Não informado;Não informado
279a8013b29565268a96401b79a537a22610385494fbd5b3e0bba7b5631ab03c;5;International;1;International;10022201;Carcas;UK;Av Blandin Chacao;Não informado;Não informado;Não informado
59b9ac3d0c692112f82b48c93e239d0acf7cfa6344274710ce5c35ae10f0c365;5;International;1;International;10024704;Não informado;"";Não informado;Não informado;Não informado;Não informado
39a08343d9a99d227c0345cfc33b841ab49e5b41b62348246f41afea04a9e943;5;International;1;International;10020449;Santiago;UK;Attention: Rodrigo Yrarrazaval;Jose M Infante 2320 Nunoa;Não informado;Não informado
9044a9b56441cca9849646ca7f6d44137d15fedc024931e152f320be27c8ae70;5;International;1;International;10025353;Não informado;"";Não informado;Não informado;Não informado;Não informado
f29eade2ba97dbfbf864bf611826eedb676bc193d996a7a2d9672b7494c5c4d5;5;International;1;International;10007117;Taipei;AU;8F No.19 Chang Chun Road;Não informado;Não informado;104
a3b6c5e1675aa4e3ce0e4c6433994b06968a1597eea605b9b4ecbffd2dde384b;5;International;1;International;10025242;Seoul;AU;Parts Division;140-2 Kye-Dong;Não informado;110-793
fe8ccb6af1d12f5d3a8347e0a6c5c02a491d46123f6feb7c6a42c90693a838f4;5;International;1;International;10005376;Não informado;"";Não informado;Não informado;Não informado;Não informado
40eacc513f186fd3d7ccd0f6b9cc39378a67708a040bea73750b94f203886263;5;International;1;International;10013426;Não informado;"";Não informado;Não informado;Não informado;Não informado
cbd0be654f82e6abbab0c0b266e1f9a1a2f95b2f4bb93ded11d7393daa88ff3b;5;International;1;International;10010882;Não informado;"";Não informado;Não informado;Não informado;Não informado
9c33f9cbbf10d11eb84af61c9a081a50aa1c9a6aade50300e7b8082d83752b50;5;International;1;International;10011360;Não informado;"";Não informado;Não informado;Não informado;Não informado
aabf32a57e3f62016c4bc1341f4edc44fd865e77d33d1a3e3fb46e594a46f3b1;5;International;1;International;10005919;Não informado;"";Não informado;Não informado;Não informado;Não informado
8d7bd4b052587fe19f1fe84c6441a6835248dcc07878fae393b16babbb948273;5;International;1;International;10020982;Não informado;"";Não informado;Não informado;Não informado;Não informado
25e6e54826f4e4cf11f9d712c438210250d39e26b44677c77a436cfe49fe1d17;5;International;1;International;10024880;Não informado;"";Não informado;Não informado;Não informado;Não informado
4a73ffbc694f0024bf24bbff098a813677b81df09378e15c9a826c0bf52c566d;5;International;1;International;10002161;Não informado;"";Não informado;Não informado;Não informado;Não informado
48c3b7d86c1594ce06dfbcbeb471ef7a6325d01f21c513e8b241f29d3606e46c;5;International;1;International;10007448;Não informado;"";Não informado;Não informado;Não informado;Não informado
9563b1d75f99ce98226037f04321a8801eb46de0ac004610713dcfefadc9db10;5;International;1;International;10015011;SE-132 28 Saltsjo-Boo;AU;Svarvarvagen 14;Não informado;Não informado;Não informado
b88450aa29aa10e2ca822bfbf75aba5cacbf089fc1939d818a3f381cb075521d;5;International;1;International;10009639;Industriestrasse 17;UK;Industriestrasse 17;8910 Affoltern AA;Não informado;Não informado
092074d2b665f4edc4639ec5957cfaba1f2865eea7b33bbe7492f28749c64277;5;International;1;International;10012161;Não informado;"";Não informado;Não informado;Não informado;Não informado
af1a330d0ae5b02d7ec4eb4f363e1770935e195ae8bc4b35c47c929102253493;5;International;1;International;10025467;Não informado;"";Não informado;Não informado;Não informado;Não informado
0ca85f406beac7803200e51b4e8b06adbdb508c3a8adc76b34b5ebf364089c07;5;International;1;International;10011979;4100 Porto;UK;Rua Eng Ferreira Dia 241-243;Não informado;Não informado;Não informado
04d9988ddf94cb9572ea65cd52be33914d3f44a52658dd84f0d6c9dd09d2b4c9;5;International;1;International;10018371;00-394 Warsaw;UK;Solec 44;Não informado;Não informado;Não informado
6c51358ed2256544d858f1723663a405b5c984e4a9dcec7065d281df3732ff15;5;International;1;International;10002137;Não informado;"";Não informado;Não informado;Não informado;Não informado
f4b3361e8efe54ef0c78996085508fbdb906148d8b734474aaa64601c9066c9b;5;International;1;International;10006917;Não informado;"";Não informado;Não informado;Não informado;Não informado
78b9ebefad9df4641e1822864ac5e8ee64239b47246e440bedad6123dab84421;5;International;1;International;10014802;Não informado;"";Não informado;Não informado;Não informado;Não informado
e7ce0c29e106108ffd488fe827b9cc46715ddbf3b6245451aadc3a033196f436;5;International;1;International;10024924;Não informado;"";Não informado;Não informado;Não informado;Não informado
95e61c7fa21f6e0bd812dd9ac09b545860387340cc8dde290d0f177981c82387;5;International;1;International;10003554;Não informado;"";Não informado;Não informado;Não informado;Não informado
b1e17b625fa6e9a21143db406e53bc44be7c4aa9ec5a4c81f0b35bffb9d7932b;5;International;1;International;10005922;Não informado;"";Não informado;Não informado;Não informado;Não informado
26a110c2815ea8a215a553408038c94157f9adc23f3b1efd7d573617de44d4e6;5;International;1;International;10007134;Não informado;"";Não informado;Não informado;Não informado;Não informado
c2698a5a568a2b05f46a54e4b3515947ede475119e53b83a5d8e5c20468dae1b;5;International;1;International;10013080;Não informado;"";Não informado;Não informado;Não informado;Não informado
1d40dd0be17f6d7d16579d69f26f23086b52f97fc55c2e8c2f1f272807989552;5;International;1;International;10020080;Não informado;"";Não informado;Não informado;Não informado;Não informado
56bb04640bebe807135dc389f66af7b4762b9b3b35ca9ac70b4092069090228b;5;International;1;International;10013670;Não informado;"";Não informado;Não informado;Não informado;Não informado
7f817d177556de05cb1202f8ca1f5da895899d076c80d8180adb18e045a45e7c;5;International;1;International;10013538;Não informado;"";Não informado;Não informado;Não informado;Não informado
b23405c0be3026f67c3575bbe40497a230b96e175458911d9ee775550e429aff;5;International;1;International;10020515;Não informado;"";Não informado;Não informado;Não informado;Não informado
d0f55a944806dae2098714a5813123a6047f89d0394d14f1b016c239fad50546;5;International;1;International;10023703;Istanbul;AU;DUMEN SOK. No:3 D.9;GUMUSSUYU;Não informado;80090
87ef8a5fb219a19668e801beb5eb3c1af737faf0c97da1bbd40eb22c3aa6e95d;5;International;1;International;10025086;Não informado;"";Não informado;Não informado;Não informado;Não informado
1f93e43925ea672a015c80eaa36dbda2466a355ac537b6b8e15c26af1c31be8b;5;International;1;International;10010865;Não informado;"";Não informado;Não informado;Não informado;Não informado
4a15ab3c71b7c00c0ed1e2e453555012081e5b2197b044b1c708aad3f3833dde;5;International;1;International;10011345;Não informado;"";Não informado;Não informado;Não informado;Não informado
b98bab2a7917915f846fd3f9d5cd7d94fee039f8778808074ac6d3d54c2c7cbc;5;International;1;International;10007866;Sao Paulo;UK;Rua Sepetiba 464;Não informado;Não informado;5052
b80a22e49d139f8b91c52371c05b4e8e59f078bbaedad459b98b7241f0ea99f3;5;International;1;International;10020849;Não informado;"";Não informado;Não informado;Não informado;Não informado
b59076ecc4edadb7804384b01694529152c5b2aa3408fbb7d37d972bef1ca885;5;International;1;International;10021240;Não informado;"";Não informado;Não informado;Não informado;Não informado
3b169dce0a839b60c07c98630746e4757400efe6e0f28057194cf6840f2a3499;5;International;1;International;10025241;Hamamatsu City;AU;RU-3 Hamamatsu Nishi;PO Box 1;Não informado;432-8611
acc234b3b27cf9651c4ef771735d76bb1451105f5e799a0f0cf773b900559796;5;International;1;International;10021107;Não informado;"";Não informado;Não informado;Não informado;Não informado
39c59e0d7f7636abe697a5d18acc8079f55f17097fe78ce07b316a3340803a45;5;International;1;International;10000499;Não informado;"";Não informado;Não informado;Não informado;Não informado
265c069afbaf5d6cf82eb81cdde7ef028da8b940d71fdc5c84e1bca4187a14c0;5;International;1;International;10007591;FIN 00710;UK;Hiekkakiventie 7;Não informado;Não informado;710
f3cde055b1f45ae2c14d1801079a2835dcb99acae12acd6769a3e99a6f057d07;5;International;1;International;10019952;Não informado;"";Não informado;Não informado;Não informado;Não informado
0326c0c75f5a13aabef8ef431c5e92bce587d4758ada16160c290d38a7258058;5;International;1;International;10020227;Não informado;"";Não informado;Não informado;Não informado;Não informado
8dd191c3a79b3c7108768be378ddab636ec92ae48279d6c85fa24b67d73d1659;5;International;1;International;10007457;Não informado;"";Não informado;Não informado;Não informado;Não informado
f6051bf2c4beece2cce4d39f98b7f37cc14597ccb5db93aadb9d45207d3834f1;5;International;1;International;10012305;Não informado;"";Não informado;Não informado;Não informado;Não informado
ace48fac32e896af3463355d3900012f67a8362911a1aa2ce32153e3f965ca7c;5;International;1;International;10005688;Não informado;"";Não informado;Não informado;Não informado;Não informado
8dd7408b9da0e811039e7b0aa8eddc1999f9bc1baa10b73b297aa9a4439bbdce;5;International;1;International;10012128;Não informado;"";Não informado;Não informado;Não informado;Não informado
8a8bbaa4d01688ef496383dae37bebbb4d312f302c1e14424eaa7687bafd91d9;5;International;1;International;10024930;Não informado;"";Não informado;Não informado;Não informado;Não informado
c25bb67c1235f6b73b81d0c50453e945ee5e412db234f85fb08e3b76946d4bf1;5;International;1;International;10025158;Não informado;"";Não informado;Não informado;Não informado;Não informado
74fff94047faf94831d61a98c692ea7a313d1ece658098af319a061f34ea88a0;5;International;1;International;10025359;Não informado;"";Não informado;Não informado;Não informado;Não informado
82588bb26e4f028a0bf3f19dd80dd1890b5f17d5771494d62d866d0426ac0073;5;International;1;International;10009669;Não informado;UK;Não informado;Não informado;Não informado;Não informado
fc12e125540b1fb82792718596da4a4b809ec48f922c720531dc05733144948f;5;International;1;International;10013341;Não informado;"";Não informado;Não informado;Não informado;Não informado
d1e37c9f0f734ac5ebd47a66d734ba3b0e216900f6d844159c4911678251c997;5;International;1;International;10021239;Não informado;"";Não informado;Não informado;Não informado;Não informado
0d7ccc3dcd4bd1372ba91139d5e005c7d25fe8cc516436278d0135aabdb66e9c;5;International;1;International;10021286;Não informado;"";Não informado;Não informado;Não informado;Não informado
391827b73c2150c2861f73bbc5c202abe862622ebdeedf45f5f3f4434e79b0ef;5;International;1;International;10012851;Não informado;"";Não informado;Não informado;Não informado;Não informado
b08a5fc53553ba73322a481911551de0a8c7da374f033180569c76e1662eaf0b;5;International;1;International;10020193;Não informado;UK;Não informado;Não informado;Não informado;Não informado
5636691a5adbbb62ac90bb4e7ef149f3474704a08145496362140b11798a44e0;5;International;1;International;10011732;Não informado;UK;Não informado;Não informado;Não informado;Não informado
b85e61a25afcc0129372d9227cf7468c4e4e66682a62a6cfefc4bcb0a4160b8e;5;International;1;International;10020868;Não informado;"";Não informado;Não informado;Não informado;Não informado
b75b4f3fdf4a0906569d35c39c2124fd680ec20c33c74d5afab95e8265e158f6;5;International;1;International;10020332;Não informado;"";Não informado;Não informado;Não informado;Não informado
2be1c16ca7bb32d92cfa3816ec98031cc1fd5452f252794fbbc9ca87d682c383;5;International;1;International;10002128;Não informado;"";Não informado;Não informado;Não informado;Não informado
c7f7fc394b8c03947d7dd0fe9bdb62de21e1b4e35b749bef7244dc862ba5a648;5;International;1;International;10026023;Não informado;"";Não informado;Não informado;Não informado;Não informado
c8e5c1278670508a4d665093a3920f30cc2d543a8de66382f0dc3633a101c152;5;International;1;International;10018603;Dubai;UK;PO Box 12932;Não informado;Não informado;Não informado
dec5867a2b18526a606ac050991a8254c629892bbab37d833bd87411b807ad04;5;International;1;International;10025024;Não informado;"";Não informado;Não informado;Não informado;Não informado
caca3944e517fd4a161583572937e2286f07561216126a2f32ef8eaf1322b4d2;5;International;1;International;10021750;Não informado;"";Não informado;Não informado;Não informado;Não informado
d200930740b11711ef5a3b68341fb2d27c3b091e75164f5760e175f53c267d0a;5;International;1;International;10012328;Não informado;"";Não informado;Não informado;Não informado;Não informado
cde5b7c1c5e147719468f5d0ed761b9288bd37091976e0a472887da00c53b9f1;5;International;1;International;10011546;Não informado;"";Não informado;Não informado;Não informado;Não informado
92bd1b5798327e74f1099361698da1b45a7e0ab957e18f3655a8ebb50429a14a;5;International;1;International;10025418;Não informado;"";Não informado;Não informado;Não informado;Não informado
2c92dcb8661f09f8ded5950c06e0906467b4154f76d9b6683c5df09d6d49edac;5;International;1;International;10015253;Não informado;"";Não informado;Não informado;Não informado;Não informado
0b9c44b631abe0cd8d59b6960d581281aa75dc7bf7839e59fd18cfa8f4b557ff;5;International;1;International;10022755;Johannesburg;AU;PO Box 86222;City Deep 2049;Não informado;Não informado
2d375b9279212a96f4f4c859d67bc062060f5600c42bf15940b89794c0d5de54;5;International;1;International;10023780;Asuncion;UK;Av Eusebio Ayala 3321;Não informado;Não informado;33126-1214
d1c313a7ae61fe29d2279af5dc2e0dd17680b72fc30c42a4ddf2dd246de2bb3a;5;International;1;International;10025267;Não informado;"";Não informado;Não informado;Não informado;Não informado
a6f430679ff6b3f751423cd92b5e899bda60fdd8f9cc6550e5f5185c5c240a53;5;International;1;International;10021006;Não informado;"";Não informado;Não informado;Não informado;Não informado
fe67b53ea22e6c0d8bccf881d055292b400283383d2011c886a2d19034b976c6;5;International;1;International;10002142;Não informado;"";Não informado;Não informado;Não informado;Não informado
765747a3a06eab56e6b14f3c947194aa34c1207d0973e0837828146be7e1da20;5;International;1;International;10011870;Não informado;"";Não informado;Não informado;Não informado;Não informado
5cdb509e2b2345ae8b7baba64ed144604ac8affc04829d2f97b82df593130570;5;International;1;International;10024942;Não informado;"";Não informado;Não informado;Não informado;Não informado
d15b49957eeb63894316d2c72caaa63bdccb2ecb42eca08c1ed16fe221b39675;5;International;1;International;10021305;Não informado;"";Não informado;Não informado;Não informado;Não informado
bef48ea4f0ed64cf837a536f95e19c79a8b71dbe00bd2e30bd7b21d07c95312f;5;International;1;International;10024016;Kanagawa;AU;1-16-33 Kotsubo Zushi;Não informado;Não informado;249-0008
aaefb2ccc54219b8e39b51788b0545d29443aea624835d6f8aaed770869c26aa;5;International;1;International;10020256;Não informado;"";Não informado;Não informado;Não informado;Não informado
572509c43b50176a4f842af009018f7b144d65e8661c1cbcb0692eec23ba695f;5;International;1;International;10022962;Não informado;"";Não informado;Não informado;Não informado;Não informado
64db8c30f651b51ec64e585eba7ad9a31a52d91600d6b6acf708484a490bc964;5;International;1;International;10002136;Não informado;"";Não informado;Não informado;Não informado;Não informado
479dfb4aa4163e60bb3ed56e05c2c4774c88a0d74728f68e16b3f38efdf457ed;5;International;1;International;10002153;Não informado;"";Não informado;Não informado;Não informado;Não informado
19d260ed5bd3cb2e0c16f44a8bd23771b0ef6fca326b9034db4abe36905d7629;5;International;1;International;10018518;Não informado;"";Não informado;Não informado;Não informado;Não informado
901ff0e4525fd7d1b68d738b7f6261c3e4772684979ffb5dc118a9cb570c3ab9;5;International;1;International;10025052;Songtan SI;AU;150-3 Chilkei-Dong;Não informado;Não informado;459-050
7968dc63cac13db8e8be28b0985307b8771a0c90227c322bbdd594eaf320e909;5;International;1;International;10026438;Não informado;"";Não informado;Não informado;Não informado;Não informado
345698c1886367def73e784806be24a6a15709311def372c9ad94ac53b381fbb;5;International;1;International;10000496;Não informado;"";Não informado;Não informado;Não informado;Não informado
53600c3df785acb7a87e9a810dfae71e23122ca1fa3e6896b1a74173e0bd54fe;5;International;1;International;10021300;Não informado;"";Não informado;Não informado;Não informado;Não informado
200c7e9380306920100f43632b32ef966ca0837f35da190759c5b6d2e145478c;5;International;1;International;10002114;Não informado;"";Não informado;Não informado;Não informado;Não informado
47ff11c368ce5b3dcd9021719275dba1e539e966798af28346175a22212f950c;5;International;1;International;10026294;Não informado;"";Não informado;Não informado;Não informado;Não informado
36ccbadcfeece37e1658b31bf87ed6106a3957afd62f27abb0c1a00094af9ca4;5;International;1;International;10015789;Jeddah;AU;PO Box 14311;Não informado;Não informado;21424
2771320278c96f2f387de1d67154eb5144f133db472a9a32b0357330cfcf8c7e;5;International;1;International;10015886;Não informado;"";Não informado;Não informado;Não informado;Não informado
292015a8c197bd9190cf6cd9093b55e29eeaf4f8413fa72da949f6e861df2f82;5;International;1;International;10002139;Não informado;"";Não informado;Não informado;Não informado;Não informado
3133d202d0af134bc109b15d7962e6382ad48d081c62e2608b1716c507a8190a;5;International;1;International;10012761;Cali;UK;Av 6A Norte 25 N 43;Não informado;Não informado;Não informado
8b2883e82ce4c83202513f107c47c328fd4819223b3c4dc22366eaf0746edb90;5;International;1;International;10015956;Não informado;"";Não informado;Não informado;Não informado;Não informado
3a0df83979bb08320c637fe3d0784ed5ec10bd92d69a8b2c24bdf87fd1d201f2;5;International;1;International;10019512;Não informado;"";Não informado;Não informado;Não informado;Não informado
e5a8b69a6fc71da21abae79d3048e4ebe3af6cce7ea44ba863f2b8b764bbe0ed;5;International;1;International;10012600;Não informado;"";Não informado;Não informado;Não informado;Não informado
dc18c351a88cf01de2e31d657b7c3cb8c05d6df1537e87ebb932df8fc742f187;5;International;1;International;10020364;Não informado;"";Não informado;Não informado;Não informado;Não informado
efdb9824a554c135ce3ea26aedde7c59991817f96547429d0df52e517729bfc7;5;International;1;International;10012885;Não informado;"";Não informado;Não informado;Não informado;Não informado
0c2802434b18406d1471d51fed148a968cd8a253d782fad246858c1a1afbf0a3;5;International;1;International;10013011;112 Reyjavik;AU;Vagnhofda 23;Não informado;Não informado;Não informado
a40cfcb9f5b1b8e100e38759f45626aa5ca0625bb277d52b7147bff967a5c57b;5;International;1;International;10000486;Não informado;"";Não informado;Não informado;Não informado;Não informado
c4d8120c63419657f48eadfb850d073a5bedfecbecf2fa71f638288c13747271;5;International;1;International;10021283;Não informado;"";Não informado;Não informado;Não informado;Não informado
940bf7666e18793278738d67f7b4259cbc4f8fd9dfe16d3eea59aedf341a8f46;5;International;1;International;10010855;Não informado;"";Não informado;Não informado;Não informado;Não informado
8cca75e9d2791680167f77d2bbd8844565aff470204278bbd2774b5ec36738eb;5;International;1;International;10011623;Não informado;"";Não informado;Não informado;Não informado;Não informado
cff2e976a4ee43a969eec9e58ad566c3407dfab107fd63569eeb08975f5c278d;5;International;1;International;10027119;Não informado;UK;Não informado;Não informado;Não informado;Não informado
343f45c2c481dc88a818404e4ceb52f3abd74981beea58c6208fe6b2df4609c3;5;International;1;International;10011499;Não informado;"";Não informado;Não informado;Não informado;Não informado
9aed3fe36e237178e89ca6d589b2f9e225129c22ab3917d9bb4d7a04e099920a;5;International;1;International;10017290;Bogota;UK;Transversal 49 No. 102-00;Não informado;Não informado;Não informado
f84cd9cf7204da81845ebcc978e2f6769d0ae1061abec5b563c1fa3593616143;5;International;1;International;10025022;West Midlands;UK;Bromley St Lye Stourbridge;Não informado;Não informado;DY9 8HS
f6f29372c90cb7acd4e16b9fc08bdf94f46413ac38e70c60ca86a1aa58688f6f;5;International;1;International;10001818;Não informado;"";Não informado;Não informado;Não informado;Não informado
0d17c745f97abb350420d00b166f1933a396adbf12a77870345b7ca72b6df16e;5;International;1;International;10005861;Não informado;"";Não informado;Não informado;Não informado;Não informado
9d0023eff2aa3aacf79d1cce3eea1e4eae207d6f5ecc88e82b8009279d3e7d28;5;International;1;International;10011093;Não informado;"";Não informado;Não informado;Não informado;Não informado
f83b664042439efb3c0ce1f107733765ecaf1535c6fd0a2a259b6c1a57bc97f0;5;International;1;International;10012157;Não informado;"";Não informado;Não informado;Não informado;Não informado
f50cc867732c20994c4839b1ece6190bacdab1be1a8da0350aabb7d3c736a953;5;International;1;International;10014043;Guadalajara Jal Mexico;IR;Rinconada De La Floresta 1137;Rinconada Del Bosque CP;Não informado;44530
136953c460a57112d8da637bc55bab0ad64e72d7a2add68d60442bb427a56717;5;International;1;International;10009633;Não informado;UK;Não informado;Não informado;Não informado;Não informado
673df87e1b61f80e05b47b341182dc10b76aef4b2fd079ab44bccc817e493a30;5;International;1;International;10018363;Panama Rep De Panama;IR;EDIF N 4141;Apdo Postal 642 Zona 9-A;Não informado;Não informado
43a0b217c3d858a56b88f9f86782cceb5d58b19ddac151a08f3d89bcccd2d511;5;International;1;International;10006983;Não informado;"";Não informado;Não informado;Não informado;Não informado
16a11927a85cda2ebc5f73b6b3b16bc6de55f60005e517f9c9f616270890c893;5;International;1;International;10021111;Não informado;"";Não informado;Não informado;Não informado;Não informado
f72e9a2d290422aace2895fa92ec43d4756ee056c13781c38ddbc7773a37afc0;5;International;1;International;10006977;Não informado;"";Não informado;Não informado;Não informado;Não informado
3894d15434b1fc1c7906041117d25bb8449267b45ad1391caa840834c2e85759;5;International;1;International;10021804;Não informado;"";Não informado;Não informado;Não informado;Não informado
ee1786eaabd6e93e216a446fab6c27a8f60e0096656ab1b8bfb953d47a84fb2c;5;International;1;International;10000501;Não informado;"";Não informado;Não informado;Não informado;Não informado
bc256a05598c427b45185a831443fcb44e9049b99d0c34852c95fe3ef76b336e;5;International;1;International;10016780;Não informado;"";Não informado;Não informado;Não informado;Não informado
58470c50173acb33919ee754351095d1d085378a65e04bc1de8e93bc9a503615;5;International;1;International;10007253;Não informado;"";Não informado;Não informado;Não informado;Não informado
1e8ca2acf598737f0e5bf4fee94d078f43319c9c2a2e3a8dbf61ce1bc443e6fe;5;International;1;International;10009650;La Paz;UK;Plaza Venezuela 1413-1425;Não informado;Não informado;Não informado
fec2803991d30183fa3592a2432d4fb4be34c7eb038269c8e82a8c7504c3b7c9;5;International;1;International;10003857;Não informado;"";Não informado;Não informado;Não informado;Não informado
00d3179c12882e64493cf6c164faeafffd3b5eb78fcbe605dd1a4d9e8b066a76;5;International;1;International;10010923;Seocho-GU;AU;231 Yangjae Dong;Não informado;Não informado;137-938
63cc7cf2bd06a716e15db32e0837ade92a2f9697132f7f7776630695c261cbd9;5;International;1;International;10020491;Não informado;"";Não informado;Não informado;Não informado;Não informado
c72aef3c6092493eed270aa5085748a9b5c721b8db7db33ec74183fbc13434f2;5;International;1;International;10023757;Não informado;"";Não informado;Não informado;Não informado;Não informado
eecae2fc33b454389fa4e5414a7b519452aee7627c14bb74cb82d9829f72758b;5;International;1;International;10002149;Não informado;"";Não informado;Não informado;Não informado;Não informado
d57929d2471174be1465812ef67835df5c08692f4b61ba627e13000b10c968de;5;International;1;International;10015325;Não informado;"";Não informado;Não informado;Não informado;Não informado
e47cf78127f62d00c5cfd1dd7aa6cd316b9800231183063066e81c6fca467a94;5;International;1;International;10020281;Não informado;"";Não informado;Não informado;Não informado;Não informado
f0b43360cc3c7211f7025f6e4d3ad514215175fc97933a7bfae2e8aefa700f57;5;International;1;International;10021411;Não informado;"";Não informado;Não informado;Não informado;Não informado
2d99061f9a74e57004e3e24ae07dc0343c09dec2294c612b6cda154810cc5123;5;International;1;International;10004602;Não informado;"";Não informado;Não informado;Não informado;Não informado
14c9701e03f8a191d3db4c6b68238f26da316307d70f01b818d48891087475ee;5;International;1;International;10020662;Jakarta Utara;AU;Kelapa Gading Kirana;Blok H13 Number 30-31;Não informado;Não informado
b0cab5ccebf5766cb5179066c55a08ffbb3535ef924efb3a075ae6a58df5ecad;5;International;1;International;10000497;Não informado;"";Não informado;Não informado;Não informado;Não informado
f460687f35ae581de4857afb177e5a8b1f2c7aac2a95e80744f7d4b3b3a80abb;5;International;1;International;10011018;Não informado;"";Não informado;Não informado;Não informado;Não informado
98981fdce0fedbea537e05daff5f95cd6a85ac7e1f82db90c3c207fb67f35cc8;5;International;1;International;10000488;Não informado;"";Não informado;Não informado;Não informado;Não informado
6a429e20dc00f514a6537a168d4c8393c3019415588f76fa528cb538341d9506;5;International;1;International;10003749;Não informado;"";Não informado;Não informado;Não informado;Não informado
0da5cdf57faf50b9c07729d5970362d2e7d7a1868fde45575527645fd2374a4f;5;International;1;International;10021380;Não informado;"";Não informado;Não informado;Não informado;Não informado
b35f34aa834d0da3eac7ef3752712c8a84388863ba036fd644322b5aa9e304be;5;International;1;International;10021736;Não informado;"";Não informado;Não informado;Não informado;Não informado
0eb34ced1d1eaa0cba7eedf853aed65c39a0ede7a5da081ab6eb7854c03f8490;5;International;1;International;10026081;Bremen;UK;Weser Ems Strasse 2-4;Não informado;Não informado;D-28390
7ad5aa53380b901661eeb99f656c9c3b072605ab3669bae66aa71340d6bd1b1a;5;International;1;International;10009606;Kilsyth;UK;PO Box 105;Não informado;Não informado;3136
0ace185ec2466e71d3a2b351bd0f19b4e761d3f9ec062ace0c6efdc9a3b307c4;5;International;1;International;10021160;Não informado;"";Não informado;Não informado;Não informado;Não informado
5249b0ae15ac5ebb36078b2a4ae0e14f9c8c9c9f23e28587ec5bc8d8217466e2;5;International;1;International;10021242;Não informado;"";Não informado;Não informado;Não informado;Não informado
936d60e8168141e27658104119ebfa13fd7a7bea5fc351e60f4c14f8536551df;5;International;1;International;10013574;Não informado;"";Não informado;Não informado;Não informado;Não informado
62b9e9e1afe3f581b8ffbcaa8c1f9922f223f1196b79cc31ce17dfd4d2b76e86;5;International;1;International;10023964;Não informado;"";Não informado;Não informado;Não informado;Não informado
5cf8f46f9cea92b5e607d9de96a47e9626235de0489cee06c6d31426c4723f3d;5;International;1;International;10020181;D 95326 Kulmbach;UK;Am Schwimmbad 8;Postfach 2008;Não informado;Não informado
c643df101e74cf0ddbaff22772ece88433548d2909d70e37ce3f148467e0f592;5;International;1;International;10019812;Não informado;"";Não informado;Não informado;Não informado;Não informado
bd78c7168f89d9eb460de6fe131d336ca128929a93ac9784fbd7988fdcc9589b;5;International;1;International;10000457;Não informado;"";Não informado;Não informado;Não informado;Não informado
006c959c09d766768bdcdc96ed78c794d35bdadd2e93279db7c3825469b5daa6;5;International;1;International;10011355;Não informado;"";Não informado;Não informado;Não informado;Não informado
c441a7986082dcbe8fb4f542ec626269f7083deab3ab434aae67f4952f58aef0;5;International;1;International;10014238;2215 TC Voorhout;IR;S Gravendam Seweg 53;Não informado;Não informado;Não informado
5ac77099f3f0faf9c454752fbb2acc79239f498a7872a5d20893d24cf3f72d81;5;International;1;International;10004207;Não informado;"";Não informado;Não informado;Não informado;Não informado
c9c985748ca8a091d35a3a640e5ca8ebde74451fde3e16f924a764efe6e2e5b5;5;International;1;International;10018129;ZI 1 Ducos;IR;Rue Champion;Não informado;Não informado;Não informado
df101b6c043dc9ae280ba307134bb97cd886929cdb1a5a013622f2ac5d805bd5;5;International;1;International;10026009;Não informado;AU;2 Calle 25-80 Zona - 15 Vista;Hermosa II Local 2;Não informado;Não informado
c2bfcd63fb514ebc977d15a1cd5ea06a280883452a54e46cebcfb5fa7849b2ad;5;International;1;International;10013061;Não informado;"";Não informado;Não informado;Não informado;Não informado
1020cb61fc9eae26f0dd25ee504ddc3209bd1e5c65d1c469297e6b0bf6d7ecc3;5;International;1;International;10002520;Não informado;"";Não informado;Não informado;Não informado;Não informado
349d0342f582d70fa07c026dc8cdfe7242b1a06e454163a330b81f35e6e596a0;5;International;1;International;10000453;Não informado;UK;Não informado;Não informado;Não informado;Não informado
b5f302f79e1757629c1f5c33c2cdd38f184d1bcc836227a854de99df48a7dada;5;International;1;International;10001786;Não informado;"";Não informado;Não informado;Não informado;Não informado
1d92ef8e3e6378908ffd6ba2565a65dcd7c41c0cbf4d1cafecb655dfedb46444;5;International;1;International;10013039;Não informado;"";Não informado;Não informado;Não informado;Não informado
6d757d0615f01cba1e4c2562d64978806c69fb105e3e9329b60a0c08b22e33e5;5;International;1;International;10002140;Não informado;"";Não informado;Não informado;Não informado;Não informado
dbef023f074f4511945dc85beb6ad031d6f3d29d482a7b9001329b0cccab47d0;5;International;1;International;10013572;Não informado;"";Não informado;Não informado;Não informado;Não informado
4565209a41f52a79f74ceebcfc431b4a8a2bbd81d9c88d5b2b3a8232763c4f2e;5;International;1;International;10007183;Não informado;"";Não informado;Não informado;Não informado;Não informado
51d7733d109b805f2cd73b3b130ad080f59566592921f9e4626904ac6272f3bc;5;International;1;International;10013079;Não informado;"";Não informado;Não informado;Não informado;Não informado
b04b33c46482b227e6b8497ab1de752144e43ac118e4d54f2cb901079056d5e2;5;International;1;International;10019420;Ruwi;IR;PO Box 880 PC-112;Não informado;Não informado;Não informado
1e90cc0bff8de893a94327ae18e2409c23520d438bcc74286e6fcc244b3884b8;5;International;1;International;10014059;Não informado;"";Não informado;Não informado;Não informado;Não informado
3ee57661b7a797fac4217d0d7a48c20cfd28f443a64cefded75f237777584189;5;International;1;International;10025063;Não informado;UK;Private Mail Bag 53;St Peters NSW 2044;Não informado;Não informado
9c880cbeaec37eb1445cabd5d764db92cd110169300f0fa11199111bfefb28d1;5;International;1;International;10010990;Não informado;"";Não informado;Não informado;Não informado;Não informado
188c5fed1389f5eba6acacca996a6c2c0a2334490e0730798bf19e85405d4570;5;International;1;International;10020492;Não informado;"";Não informado;Não informado;Não informado;Não informado
5bf22606f12b4cf32d0f7a8bfabcc5425a0bbde0d14cb9d81f3a6543410ad8a4;5;International;1;International;10005236;Não informado;"";Não informado;Não informado;Não informado;Não informado
d01e2743f4eec0e9aa64b027ebd54b5fdc1bcbb40a2dde24aef411d3506ddebb;5;International;1;International;10022978;Não informado;UK;Não informado;Não informado;Não informado;Não informado
4ca2e7d6e413612d6e0e97fc38277505fcc081362748e96d4f49e140f80b39bc;5;International;1;International;10009863;Beijing 100088;UK;PO Box 065;Não informado;Não informado;Não informado
b72207ea4933f085d3179ee981eab71ee5ccca0c583d8ee885cb71eb4f1df678;5;International;1;International;10020907;Não informado;UK;Não informado;Não informado;Não informado;Não informado
8642787e94aadc404d1f99787fce3b78686fe0adceb35fb222b84d590506b662;5;International;1;International;10009645;Não informado;"";Não informado;Não informado;Não informado;Não informado
776c07e2b299663a617c5c75de2ec631c50b08607f23966ad002da09882b523b;5;International;1;International;10002154;Não informado;"";Não informado;Não informado;Não informado;Não informado
b6c54cde2bd815cfe376807b08ef69616adfeb59a455146fc177a0ea80378c11;5;International;1;International;10020864;Não informado;"";Não informado;Não informado;Não informado;Não informado
6ac0e9c85647a5b91f9934880a9f01c3a0737127580982609186733bca639f55;5;International;1;International;10002155;Não informado;"";Não informado;Não informado;Não informado;Não informado
5ffbbc129900f0ea06eab8aa98bf5cc54ab23486c617707a994c6e64319d656e;5;International;1;International;10006919;Não informado;"";Não informado;Não informado;Não informado;Não informado
1113dbc5e5998d56979a3a03681f081a317b0ce29915861a2a2fec78daf83018;5;International;1;International;10026365;Não informado;"";Não informado;Não informado;Não informado;Não informado
dc86a33d60932fe0e958f767b9c4d60aac7b8056dc68adec6ba467643cfe434b;5;International;1;International;10012158;Não informado;"";Não informado;Não informado;Não informado;Não informado
027317bd0b4ebbbf1621ddb9e7ca4f42965491773a304b8bdca56a75c23e2d80;5;International;1;International;10013127;Não informado;"";Não informado;Não informado;Não informado;Não informado
277ea15e1b93fd7c6c07c6e24d12f1bb69d8b4b02441098c1a3dfe50c2853062;5;International;1;International;10016113;Não informado;"";Não informado;Não informado;Não informado;Não informado
e68274d46c22aa4564b90e5387a1bdadfd530fed50b9eb398ecac1a5923065e8;5;International;1;International;10022167;Georgetown;AU;PO Box 10361;Não informado;Não informado;Não informado
2973e992793663c6adfbbd6770a453f22618383812d215ec3972336a1898a740;5;International;1;International;10019469;Não informado;"";Não informado;Não informado;Não informado;Não informado
1776fbf8d377c1c6532e2b47400afe3a894754618708be32b059fc85b0972dd5;5;International;1;International;10015267;Sollinge Molle;UK;5750 Ringe;Não informado;Não informado;Não informado
03c5cfff9a89759f2db79b17898f9408ddedfff768a65851ac8b01422e043b80;5;International;1;International;10020247;Não informado;"";Não informado;Não informado;Não informado;Não informado
7ada2cfbabf77a4af46195887cecc3bc4d4b394d8a7a60a81d5d289db5ef943a;5;International;1;International;10013397;Não informado;"";Não informado;Não informado;Não informado;Não informado
dbae822b3a2a18ef0d854c575f076938475b8f63fdb600170caf86c8525b1e02;5;International;1;International;10021494;Não informado;"";Não informado;Não informado;Não informado;Não informado
5da93b4825541502f6c46fde5d8dbb86645d9f9122096533806b56cf9c5c5e6e;5;International;1;International;10007536;Não informado;"";Não informado;Não informado;Não informado;Não informado
1d193ec0f8aff8f24038b7dd33756d2534948f3d82cd2a2e4967005d81594c82;5;International;1;International;10023495;Não informado;"";Não informado;Não informado;Não informado;Não informado
1fdb56638f7840a8291598d1ed76734fde0b19c62461c9d9b899448ff825512c;5;International;1;International;10024477;Santa Cruz;UK;Modulo 2 Manzana 27;Parque Industrial;Não informado;Não informado
858ca47fa1ad1c5c7810d66c65b78b9f0dddb1e2364c162332d5fd40d9ba9b70;5;International;1;International;10013052;Não informado;"";Não informado;Não informado;Não informado;Não informado
671261d48d7fb3374c0703cab1156da0abc0f213d7723a5d461e79a6a374a20b;5;International;1;International;10004516;Lighthorne Warwick;UK;Vehicle Operations;Building 540 53G/23/1;Não informado;CV35 ORG
3d9f483ca11991e42075e409f336cc88e1c0a69086a5ff43efd72002cdf9a5b1;5;International;1;International;10021331;Não informado;"";Não informado;Não informado;Não informado;Não informado
e9faef78572c1be53ccc5cfaf222c55c02f3c14c9b091e791765f832c1230522;5;International;1;International;10026038;Não informado;"";Não informado;Não informado;Não informado;Não informado
5ce326d1011cf71471a943c2d40de6ecdb22888740987fc5133f74789bdd9a3b;5;International;1;International;10000471;Jeddah;AU;Al Thalia Street;PO Box 11605;Não informado;11443
8bbb16d388e135f06692fe15ecacdf034ec2dfa9ced03f861b059486cfe05359;5;International;1;International;10011842;Não informado;"";Não informado;Não informado;Não informado;Não informado
19415dc2fb5551b5b161a012054726db7fb8b993460cff41871cf0128abc5b6a;5;International;1;International;10018868;Não informado;AU;PO Box 871 Safat;Não informado;Não informado;Não informado
7977c107a9fabb69b50d0719053930d9a2c654b76d2b01b5f3a65abc21ee5fa4;5;International;1;International;10022166;Não informado;"";Não informado;Não informado;Não informado;Não informado
6303e5e1af6cc6e2d5b7f03ae4b6d73fc131898596e776fee52a1c33933c4840;5;International;1;International;10017852;Não informado;"";Não informado;Não informado;Não informado;Não informado
b9e6fc2ac563f630c3c954a9e41ed978fe975af323a4404bfd71b4c4b821b3e9;5;International;1;International;10021297;Não informado;"";Não informado;Não informado;Não informado;Não informado
f49c193997c7ac974f4fddac0a2f74e387fe8957446d3881331d0a6dc41970e2;5;International;1;International;10007309;Não informado;UK;Limited Reg Number 28388;40 Devil's Tower Road;Não informado;Não informado
96e44e143717d8e246ace82505c06dc31f599d285ae9f3fc67e92899299ac817;5;International;1;International;10026521;Quezon City;IR;97 Banawe Street;Não informado;Não informado;1114
778dcc7dfc6e1da2b2d2f1f3181c77ec92193d6545433e34f70a3e3dbb9b21c9;5;International;1;International;10007258;Não informado;"";Não informado;Não informado;Não informado;Não informado
0f07fda552f7a7c5425ec0e7d6851c5ce2f520de5ba52924baa7d11f750e3e65;5;International;1;International;10019514;Não informado;"";Não informado;Não informado;Não informado;Não informado
decc2f0fc0054e17acc22fe658adab13333b82dd2c1b511b6621b669e6868115;5;International;1;International;10020266;Não informado;"";Não informado;Não informado;Não informado;Não informado
33d55df615cee63bf25ccb07f6f2d070c36088cedd3d4c8487acd1c7dcfc1272;5;International;1;International;10002526;EE 0026 Tallinn;UK;Kadaka Road 72 a;Não informado;Não informado;Não informado
1d5e018069508c45a9da14ffe8d5d9758197e00736d2aeebfb6173d10314556b;5;International;1;International;10006916;Não informado;"";Não informado;Não informado;Não informado;Não informado
108cfd467f0d16f71c29ed5975b9a783993efcdbbf712dd3e4cef8255ae2abdd;5;International;1;International;10020306;Não informado;"";Não informado;Não informado;Não informado;Não informado
6123e1a1ed94186bb6068b901f63376849cce9fb82a4dd1b286dd809ae7e051f;5;International;1;International;10021270;Não informado;"";Não informado;Não informado;Não informado;Não informado
56578c8ff2b781d7a693d1227a5d2f367c31040ea09c8dc426adfa31f5b6c72d;5;International;1;International;10025304;Não informado;UK;Não informado;Não informado;Não informado;Não informado
f85541c62a1ec6b46a9de8b77ef79d0bf39e6fcbcfa11c91379aebce281069e7;5;International;1;International;10025392;Não informado;"";Não informado;Não informado;Não informado;Não informado
29e1d59f95ee6cacf114a7e3e9a0e66578074df55e25e7fbbef9c5452c0cef07;5;International;1;International;10013870;Não informado;"";Não informado;Não informado;Não informado;Não informado
4849c76f2d08f1d42d1c3d262dad743515eeacdead9e64ffda9ca69aa2898891;5;International;1;International;10002412;Não informado;"";Não informado;Não informado;Não informado;Não informado
62a3613e779f0dd514d261a7fdc5a477e51b54a8fc5b61a2be27227052516579;5;International;1;International;10023511;Schiphol-Rijk;IR;Bellsingel 2 1119NV;Não informado;Não informado;Não informado
14a845b89aec862b48905703fe6d4571d886b55222d8891d25575cc4d732a449;5;International;1;International;10001103;Não informado;"";Não informado;Não informado;Não informado;Não informado
5727f60d2ce8b70d0b51e033c36f823a5e48879b596d1fd519755645cbc23151;5;International;1;International;10004255;Seoul;AU;3F Shinwoo Building;195-12 Poi-Dong Kangnam-KU;Não informado;135-260
e6e8a11b3474872442e2667e605321f2338324972572b4018578616a4fe39ce7;5;International;1;International;10010832;Não informado;"";Não informado;Não informado;Não informado;Não informado
35dd64772d8c790f057a343dcc0374a5ccaa6236e4ef4b4b2c3841d42f870afe;5;International;1;International;10025737;Não informado;"";Não informado;Não informado;Não informado;Não informado
e5558b38e9299b4db717dfb5c39e047f6919c4a0c36fbd253dd5a6ea25e6c913;5;International;1;International;10011089;Não informado;"";Não informado;Não informado;Não informado;Não informado
52c57f40deebd2434072a7e0d3e28f2e8c8a031d71d87d7fe88364c49dbd5341;5;International;1;International;10027370;Madrid;UK;General Pardinas 112 Bis;Não informado;Não informado;28006
ebfbbc7f5d2059b1620352eac1d77ebe6ad3cda7ab7290518a46da4c08445f1f;5;International;1;International;10005099;Não informado;"";Não informado;Não informado;Não informado;Não informado
547bbf3e3026f1cef112b5b493bb5768b29ca80a0f6755b9ce87baebc744d0f0;5;International;1;International;10013871;Não informado;"";Não informado;Não informado;Não informado;Não informado
b30d8a4fee0bf29cebb7f2d88d283001be50b1f5a4722f3328886da9b1b485ac;5;International;1;International;10005810;Não informado;"";Não informado;Não informado;Não informado;Não informado
59e98bf962d1a6d5779be0689ed80a123b64250c85dfab4eec0760f3142a8b21;5;International;1;International;10011600;Não informado;"";Não informado;Não informado;Não informado;Não informado
79b4b4618a381d32e8982cab7dbe11e54302dff618fa7200b3bd39ee79ebfd17;5;International;1;International;10019066;Não informado;"";Não informado;Não informado;Não informado;Não informado
d50fcd352c626e322fe81f4013297d6633b37a8cbe327c77197d15ec8288d878;0;Canada;1;International;10022240;Mississauga;CA;1665 Shawson Drive;Não informado;ON;L4W 1T7
7da810117707d5c63ad38550760d04b77626aa43885953b0535d4443325145eb;0;Canada;1;International;10025237;Oakville;CA;Central Accounting Service;PO Box 2900;ON;L6J 5E6
d43db70bcd30cfb0f0fe5876d5936d67918ae8c0963067d353ffc5f2d5aec3c4;0;Canada;1;International;10016609;Winnepeg;CA;Unicity Distribution Systems;1445 Church Avenue;MB;R2X 2X9
b439991a8ea0c2ce33e1202d5b07fee5b5253f804deb9a4d137150fed9274e08;0;Canada;1;International;10011724;Ingersoll;CA;300 Ingersoll Street;PO Box 1005;ON;N5C 4A6
0fe73e061986eedc2291f3cc6c6c5f960b0e1a4cef74857e17c659c49c0ec31a;0;Canada;1;International;10026268;Surrey;CA;Unit 403 - 17665 - 66A Avenue;Não informado;BC;V3S-2A7
475e0c612935af500d01453b158fe541989036556ec0362ae81646b5335c7a5b;0;Canada;1;International;10014471;Calgary;CA;2916-21st Street Northeast;Não informado;AB;T2E 6Z2
466105f1b9344b727d0fe7f41a76d51ba6e859fff3d23d9e8e483fe7c7b2573c;0;Canada;1;International;10009652;Valcourt;CA;550 Du Parc Boulevard;Não informado;QU;J0E 2L0
66f108d2c5ad656aec5052f8c276253ddbcdfe6aff09b7cda314f1e5dad024ce;0;Canada;1;International;10025032;Montreal;CA;c/o Rampar International Trade Corp.;6260 Place Northcrest Suite 305;QU;H3S 2T4
072461cf3a81d06297a8f42441359bf10098913a84e2e227e950afb047b08403;0;Canada;1;International;10000469;Montreal;CA;Attention:  Accounts Payable;7025 Ontario Street East;QU;H1N 2B3
f4d3cc53e32b02fff7ebc157febc6614756c59df93e79c0231bdd597c3819e45;0;Canada;1;International;10019913;Calgary;CA;10901 Macleod Trail South;Não informado;AB;T2J 4L3
bfa940c0b24ee6ae8cf7408f55dfe44c372bd5323fd29c9735f43da5b9adbb8f;0;Canada;1;International;10018146;Fort Macleod;CA;Box 1178;Não informado;AB;T0L 0Z0
ed9874b88a3d8d994aad8434ad2289e04a10165659b9e484ed72105033e3f13a;0;Canada;1;International;10010884;Boucherville;CA;170 Industrial Boulevard;Não informado;QU;J4B 2X3
5076fdcbbce832a327f68c12ad6b704605bf944756640fc692123c6aeb0ab7d4;0;Canada;1;International;10025246;Winnepeg;CA;515 Oak Point Highway;Não informado;MB;R2R 1V2
72818a9a1dd0b5f416c2c0da1f1956477d6ad02c01fcbede75ef1306daf0c8b5;0;Canada;1;International;10025508;Moncton;CA;1809 Main Street;Não informado;NB;E1E 1H5
dcac32ed2e404c754ad66f25eb1f438cd238e6c0a67bcd4f43475b540a157722;0;Canada;1;International;10027082;Edmonton;CA;9111 41 Avenue;Não informado;AB;T6E 5V2
7e9f9e6ac223dad40ffc8107cb3c18eed0e9a086ff83f057b9f5b4e1855b10f2;0;Canada;1;International;10017307;Anjou;CA;10401 Boul Parkway;Não informado;QU;H1V 1R4
0cd6167d1f6bd6153e3ee286fab7bfee503957c09abd10e4eb47ae804bee80c5;0;Canada;1;International;10021204;Toronto;CA;480 Gordon Baker Road;Não informado;ON;M2H 3B4
b220a4ec52280acecfee4fdd8ffb0ade975de641ff62a8636321e8342296509b;0;Canada;1;International;10010887;Edmonton;CA;9605 56th Avenue;Não informado;AB;T6E 0B2
e4beaa68a9c02cff9e7d4fd31586b2212918decd5ca3740838e78d56d8d813b6;0;Canada;1;International;10009653;Mississauga;CA;3355 American Drive;Não informado;ON;L4V 1B3
a38b71541d485f181306046e09028d1fa22422cb4d258f4325c3961f22fb838f;0;Canada;1;International;10019410;Edmonton;CA;6710 76 Avenue;Não informado;AB;T6B 0A8
7ceec4725328b608a08e9409baf6b584d77cd65d1d4f44f4c25f9b7e7e070503;0;Canada;1;International;10026006;Calgary;CA;308 53 Avenue SE;Não informado;AB;T2H 0N3
c9c98d7222663c3e0d9c32b5588ed0ca2c12fa6833ff51e63f34048fc6d0e21e;0;Canada;1;International;10000456;Edmonton;CA;8151 Wagner Road;Não informado;AB;T6E 4N6
ed75ca3c318f6c21bd1af71b636cd39c89b85d399cbe60dcb40293d8eef7e848;0;Canada;1;International;10022687;Burnaby;CA;5325 Still Creek Road;Não informado;BC;V2X 3K6
82540bb129e8c042a1d634b75a886189d4dbe6f63501a32341790d5977e68275;0;Canada;1;International;10000461;Boucherville;CA;1391 Gay Lussac;Não informado;QU;J4B 7K1
58536a205bb3571c65d58850b334b0da25d51cf1b05e4ceac18b8df48cb67bea;0;Canada;1;International;10025023;Saskatoon;CA;815 Circle Drive East;Não informado;SK;S7K 3S4
13143103d4a7e052e95277ff8731edfa8e1f6dc0b656f2f0d8eb871e60ff28a1;0;Canada;1;International;10025299;Montreal;CA;6260 - Place Northcrest Suite 305;Não informado;QU;H3S 2T4
f0af581c4ede2549be619a0bb476fb46cc439ee0d11223521fb91832f18550bd;0;Canada;1;International;10021472;Surrey;CA;9475 192 Street;Não informado;BC;V3T 4W2
b0c36dc031d9383f04615cb334d7667611dea5f8b2914931f922adc69280796d;0;Canada;1;International;10025298;Toronto;CA;1111 Finch Avenue West;Unit #22;ON;M3J 2E5
2551e9539e0f54e79b8150b0dd2bc3ebae92283922e77ac25925df78e2c1b83d;0;Canada;1;International;10009885;Winnipeg;CA;PO Box 7100;Não informado;MB;R3C 3B3
26b4289b2eee255a6c15a1b3cc6ba94bae1ff44e793ddcc811ea15dd33ae2f14;0;Canada;1;International;10002220;Prince George;CA;1594 Nicholson Street;Não informado;BC;V2N 1V6
58f74e168be3fe2760434de4e141e8592b797af872b6b55f5035e55c5d9745d4;0;Canada;1;International;10025575;Beamsville;CA;PO Box 640;Não informado;ON;L0R 1B0
958944f6634d621941a4a307f5e043e069a0f6cec81f364c93db32bd0b400b17;0;Canada;1;International;10023022;Surrey;CA;18412 96 Avenue;Não informado;BC;V4N 3P8
d49fca9c56570d4814dc07435554776e0915fbf4ae3b0b335f4e33fb05fbca10;0;Canada;1;International;10021158;Surrey;CA;#9 - 19257 Enterprise Way;Não informado;BC;V35-6J8
cd87ae977b8f0f612a2e61ab5ac8677b8c3cd0bc8dc7277fc1ac7051423a0ce6;0;Canada;1;International;10020448;Regina;CA;1155 Mackay Street;Não informado;SK;S4N 4X9
90b7009dbd08ed9252c08b250cc2dd7011ec360b7be47ac3ca9665f26e1c83cd;0;Canada;1;International;10024034;Edmonton;CA;16215 118th Avenue;Não informado;AB;T5V 1C7
a30e038dac43ea76a1f37efa4865b80ee20c64011455a6306ef1c6890ef5eb8f;0;Canada;1;International;10012235;Winnipeg;CA;PO Box 1005;Não informado;MB;R3C 2W7
11a908012243cb78479746f608df8cf705a58188b71af665b69393fddc447603;1;Western;2;Domestic;10000466;North Highlands;US;3213 Orange Grove Avenue;Não informado;CA;95660
59d412a6d711b5285c5c708b5d2472312a0b6b48cc21df498d9768620e8d583c;1;Western;2;Domestic;10009631;Corona;US;1477 Davril Circle;Não informado;CA;92880
d34a9f49d1d4e628b46ecdbe8832030ce9bec85a4a72fac497c30d31345a6376;1;Western;2;Domestic;10021418;Wheatridge;US;10930 West 44th Avenue;Não informado;CO;80033
f75c69dc2fdf7467e51e65e1be2c29a28228014c53ba14b87a3c82521e4e4241;1;Western;2;Domestic;10015793;Sacramento;US;3248 Auburn Boulevard;Não informado;CA;95821
0b2f7a23d8bd583c6812462629ec2db276f475bbcecc54cb814ea6a2d873674f;1;Western;2;Domestic;10012234;Hayward;US;PO Box 4658;Não informado;CA;94540
9bfad5baa30e391bb80699c3ef79f81a2361648a834e0ba0dc4c3fb0a5fe7f89;1;Western;2;Domestic;10000455;Huntington Beach;US;7392 Count Circle;Não informado;CA;92647
78ff7e4aa67bd95b7d1b2b2494659103dfae41631390403f5a2fbc4dda3b4653;1;Western;2;Domestic;10025305;Colorado Springs;US;4260 North Nevada Avenue;Não informado;CO;80907
6d60553f576bda882ff24034d8bb1b0a9d7857bcdb4b7552867392e15ce22b5e;1;Western;2;Domestic;10027381;Tumwater;US;2649 R W Johnson Boulevard;Não informado;WA;98512
9b73d970ee8531815bd85fd50112ba8f97dcef48eb12400abcf7163f4e6540dc;1;Western;2;Domestic;10021203;Costa Mesa;US;Los Angeles PDC #14;Attention   Accounts Payable;CA;92626-5555
0ca5b6d91c9f4020a1587fdaf1ea3d467e2e8489f0018dd83fdf23336f20b40c;1;Western;2;Domestic;10025769;Redding;US;850 Commerce Street;Não informado;CA;96002
db95febaa308e1f18dc34dd53c3df0e07f04339cd37f26134304958d6a28fa17;1;Western;2;Domestic;10021412;Clackamas;US;13101 SE 84th ave;Suite B;OR;97015-9733
7e4a4b52a92dfc02c4234ced6e7653f6c2fde175d3b20d0933d1be0f707c5354;1;Western;2;Domestic;10019900;Sacramento;US;3248 Auburn Boulevard;Não informado;CA;95821
9321a39e22eef25432a48332ec616711e2192c4bca7bce09549147f60ce9e5f6;1;Western;2;Domestic;10022434;Placentia;US;PO Box 958;Não informado;CA;92670
f550c977c3ff98fa5dae6c5349d0f5b1bdb85cb51a17f4e02a8158ffce74c7b4;1;Western;2;Domestic;10025049;Milwaukie;US;13270 SE Pheasant Court;Não informado;OR;97222
149cbce1898a76a6e25d62b0a4aac1154562367562afa375102c9200de18df32;1;Western;2;Domestic;10022183;Breckenridge;US;1760 C Airport Road;Não informado;CO;80424
1010a7f2bb7b98a1eab03288ea63a48caae4b10c60a7f72cced1c8f394aad280;1;Western;2;Domestic;10021222;Buffdale;US;14296 South Pony Express Road;Não informado;UT;84065
1ae7101044d7e4aace05f538de3f9b1209c0c56ece1d7370a11bc8fce004f889;1;Western;2;Domestic;10014546;Phoenix;US;Division of Western Truck Sales Inc;3530 East Washington Street;AZ;85034
237bc15043dc23c68f54eb8ca210493ee4f86ef3f070aef52cb74928c96c148d;1;Western;2;Domestic;10000472;Van Nuys;US;8000 Haskell Avenue;Não informado;CA;91406
c0c4a0414b3c1c2e84e571d0b58f323566ce4ca46e4cbe844c4c6d5ea98b4f82;1;Western;2;Domestic;10002709;Albany;US;PO Box 99;Não informado;OR;97321
8da6a5cb259239daf1db7f987ddb29cfabe612f9c00f2cea28e4aa6a333501d4;1;Western;2;Domestic;10016858;Beaverton;US;6590 SW Fallbrook Place;(Commercial Industrial);OR;97008
20ac9b8e3df44361ef37d9180b1030195a39eab6f86203925a0c493a590f7ae9;1;Western;2;Domestic;10025919;Compton;US;801 West Artesia Boulevard;Não informado;CA;90220
29451a4b3b57471cda06db35b61f6bbb280ebc41f6df1466287a4095bfd716f1;1;Western;2;Domestic;10026861;Salt Lake City;US;2280 South State Street;Não informado;UT;84115
635da0705428e100352e33fc0bc67ecb1b590c8ca1853b8a29cefd10c8a0c5a5;1;Western;2;Domestic;10020393;Fort Collins;US;2649 East Mulberry Street;Não informado;CO;80524
69dbba45145cb678df8696e76069c774a1dd6c07caebc19d48cbdb91ac98ead5;1;Western;2;Domestic;10011398;Eugene;US;1942 W 11th Avenue;Não informado;OR;97402-3519
a9721ed38d1c11982ff9587ab3a3903c0f12af7f842dd023efa780cd0abde0de;1;Western;2;Domestic;10023778;Hillsboro;US;PO Box 70;Não informado;OR;97123
14dcd3d8d18b3dad9989ed3fd20df07149c977fa8689fdcbc4b251f1ae26dd78;1;Western;2;Domestic;10020931;Bozeman;US;PO Box 549;Não informado;MT;59715
6acba096705ac5cf65656cbd7846a5c2fc0f95ce77a6197e1bce5af9e216206f;1;Western;2;Domestic;10026843;Tulare;US;100 East Inyo;Não informado;CA;93274
78ed6a509c62ca80295868104e51e5a6d528ae057b11e4d5c1eed4cb22f80f4d;1;Western;2;Domestic;10019109;Sacramento;US;Sacramento PDC #13;Attention  Accounts Payable;CA;95851-1297
1a2c638be57e15a79d333ce074e39f3529c1e4cb213fc30d1e723fb91916d068;1;Western;2;Domestic;10007120;Rexburg;US;DBA Pronto Jobbers Warehouse;PO Box 409;ID;83440
51027068b722b3ae65500b5e8ab94bf8e831810feb31e393dae3838615052b3a;1;Western;2;Domestic;10000480;Phoenix;US;Attention: Accounts Payable;PO Box 21502;AZ;85036-1502
3d0650e1ca428585ce7cd38e20207d5443adc615b0a8121cc1a361368c967e43;1;Western;2;Domestic;10006846;Modesto;US;1023 Kansas Avenue;Não informado;CA;95351
c3310daa929a7b2aa6ac2b81a37b01dd44a9a6d4c9005339ced45931a3bf1efe;1;Western;2;Domestic;10026355;Casper;US;1275 North 6 Mile Road;Não informado;WY;82604
1e762f70930f7354dfcf305b9a38d9cd40f7e518b09da0cc8c217c32f2fbae52;1;Western;2;Domestic;10022456;Rancho Cordova;US;3340 A Sunrise Boulevard;Não informado;CA;95742-7316
316082f5aa2e8f080cb1aacc8a078c7d5ac65ec291b8ec8ad1a03a5f09a8355c;1;Western;2;Domestic;10018628;Tigard;US;12805 SW 77th Place;Não informado;OR;97223
2b3aec5e607495d7fdac9e39c07fd5073f6288e4995d980ad00cace72bbd69c5;1;Western;2;Domestic;10019678;Sacramento;US;3248 Auburn Boulevard;Não informado;CA;95821
84839c77aa20f9392d17de66c6b6ef6a011eb19574de2619c965dbb63c3a436a;1;Western;2;Domestic;10025025;Auburn;US;2402 West Valley Highway North;Não informado;WA;98001
fe91c8478609286a7139065f613e53bd0f14ac17e2b75965b75cf2c6c8b81ed6;1;Western;2;Domestic;10015030;Anchorage;US;2192 Viking Drive;Não informado;AK;99501
c48c257d40ee1eb32d1af08d500c68f2c147f7682bc0f7400c15dd78334d02b2;1;Western;2;Domestic;10014495;Clackamas;US;12900 SE Capps Road;Não informado;OR;97015
b908f6ad525362de9a4e3a163ad71c3c65171c7b967f733748efb21b8f45b982;1;Western;2;Domestic;10008893;Yakama;US;508 South First Street;Não informado;WA;98901
d32f933ca9a3aaa847e0e840e1d5aabf53b845fbfeeb409ffe130b656fc3f809;1;Western;2;Domestic;10021184;Aurora;US;14312 Stenbock Way NE #F;Não informado;OR;97002
b58d30c1c454fa922616569b782ba12d9c7931befc556fc9ee8f0e60143da115;1;Western;2;Domestic;10024003;Benicia;US;Attention:  Accounts Payable;5500 East Second Street 2nd Floor;CA;94510-1020
4a9048a7f59998b79025fc44ee21f70cca19801ff269261e6692eb1d63ab05c6;1;Western;2;Domestic;10009656;Trinity Center;US;PO Box 450;Não informado;CA;96091
aa0f17c7cb838d197d59919f9a5303e2eeb4c1c9ec2f2b99ee8b0f241b45324c;1;Western;2;Domestic;10002506;Salt Lake City;US;Attention: Doris Nielson;PO Box 26005;UT;84126
c8723b58fe67ce4dc5d497741bcdc154712f402774301e1fd365557b61e05594;1;Western;2;Domestic;10004245;Portland;US;4747 N Channel Ave;Não informado;OR;97208-3591
11bf5f336d9bf8da7929194646d78042097a369ea829cf3e5d9e764a61dc9e33;1;Western;2;Domestic;10020192;Sacramento;US;3248 Auburn Boulevard;Não informado;CA;95821
3ae509297027721a25f6f584fb41d085c0ed0316a319979a99655470c3917ef2;1;Western;2;Domestic;10017828;Cypress;US;PO Box 762;Não informado;CA;90630
0063c22199f063bb0cfb53df3774ee8f13395fa8dc4d5521f82e1b3201c26ff8;1;Western;2;Domestic;10000473;Rancho Cordova;US;3290 Monier Circle #100;Não informado;CA;95742
99f7da15c8e9bb99f841d14d05d886df0968f7cf2d51e9e1e7ffb4a0a4edbd75;1;Western;2;Domestic;10025034;Corona;US;395 Smitty Way;Não informado;CA;91720
1f7bbed61101b9d2ed961889029421152e753510de2f5cc4e36f16083215a114;1;Western;2;Domestic;10009647;Sacramento;US;3248 Auburn Boulevard;Não informado;CA;95821
7d7bf6b8155e1fd87af95f4203292a87774d0f55fa93dd860b2ccd190d1cdfe4;1;Western;2;Domestic;10024022;Irvine;US;9950 Jeronimo Road;Attention: Sohaila;CA;92618
beb4cf6fd731bde2c408dcfbdb2603f40060a359dbd859a21e01de0ee2c222e9;1;Western;2;Domestic;10014047;Fresno;US;1510 Merced Street;Não informado;CA;93706
f72212016a9225441070268b5369fddc1d6d8784dd8359d0dee336d64eb47a99;1;Western;2;Domestic;10025238;San Diego;US;4567 Federal Boulevard;Não informado;CA;92102
4a7aea4318d69ec427e3c82ecf839c4551777ac7300a59ca5d461b753eed9bc3;1;Western;2;Domestic;10018885;Pocatello;US;128 So. 2nd Avenue;Não informado;ID;83201
e756c2e4b314239e13e67431662f28ddf018fcd37181f6ac3a05ced21864765b;1;Western;2;Domestic;10024743;Enumclaw;US;907 Cole Street;Não informado;WA;98022
e6298cdeb35d124af0fdf578d54a41173cc98c52aa48fbb79d2d7bb4e6c644b7;1;Western;2;Domestic;10008381;Puyallup;US;10023 128th St. E #7;Não informado;WA;98373
274c142abcea107eb32d4f3a4169dcfa337adc0393f10ce810edc7a90d231d67;1;Western;2;Domestic;10020663;Sparks;US;540 South Rock Boulevard;Não informado;NV;89431
67e9fa23b9aa8bb07e38b7f3aadba5601df41e31bb3ca752b69467a636be3aad;1;Western;2;Domestic;10019388;Ft Collins;US;1101 N College Avenue;Não informado;CO;80524
9f3cc2f2869e65b19f2586d76a1dd365c91ed1799457005d74032acf51f67b30;1;Western;2;Domestic;10024270;Maxwell;US;PO Box 1010;Não informado;CA;95955
c313cede66bda4bbb1792ebe7191c1a2660aed7fd3be502c9456be170f2a9e7c;1;Western;2;Domestic;10023513;Stockton;US;640 N Eldorado Street;Não informado;CA;95205
6a1216035a8a24654efedf7501a44d3b131616488053140adb65af2c3862d0e2;1;Western;2;Domestic;10023212;Medford;US;c/o Tom's Bronco Parts;2294 Sage Road;OR;97501
9bdd087b94b91e534e976210a999ec10a5ff52490f298ce39b97df9da4d0757b;1;Western;2;Domestic;10025248;Kent;US;730 North Central;Não informado;WA;98032
323f088ebd464a7a614b5b852da1c201686217b71fde94e5eb682a3f72bf883d;1;Western;2;Domestic;10009672;Phoenix;US;Attention: Accounts Payable;PO Box 21502;AZ;85036
d0cdab616f82686b4099c49f95f9035064739c963aab061f0d230192d77307aa;1;Western;2;Domestic;10011981;Missoula;US;PO Box 2640;Não informado;MT;59806
79c802508a672b401f136874a86479ecdf6f06295b3dc5e506a11be455191262;1;Western;2;Domestic;10009985;West Jordan;US;PO Drawer 40;Não informado;UT;84084
18e21294351abb6cbc9818c10692b6bf5d060926b7430ce5b2641927b757d169;1;Western;2;Domestic;10010698;Gardena;US;17010 S Main Street;PO Box 88;CA;90248
5c2bf7bc317f5c195fe74fcc29b5caeb9086d6121e2cd216e8cc2fc072fb7ecf;1;Western;2;Domestic;10025284;Hayward;US;19745 Meekland Avenue;Não informado;CA;94541
84f4f88d7893773941dafd6ef877d378b340bad85d23ce8ed6783130b4d162f4;1;Western;2;Domestic;10025264;Tuscon;US;3545 South Richey Boulevard;Não informado;AZ;85713
caa15e2a059b7ace77ed40f4f7406f032bbc94f001dfaa2bf914a716e9fa0f52;1;Western;2;Domestic;10010886;Libby;US;522 Montana Avenue;Não informado;MT;59923
e40274e1d199da8b58a003e3af027f948a768f61e888f70497e6c5bc20c62c99;1;Western;2;Domestic;10025037;San Marcos;US;725 North Twin Oaks Valley Road;Não informado;CA;92069
1a4579d3a2bab0865e3a7561f48b1ff1fcb0694e55f9b9152e2e35c0d52dd92f;1;Western;2;Domestic;10025289;Fresno;US;3631 South Bagley Avenue;Não informado;CA;93725
933f9153eebc7d26bb6119289013d3c9edfce752d618ace31ffc9ec4442f2ebd;1;Western;2;Domestic;10023489;Sacramento;US;3248 Auburn Boulevard;Não informado;CA;95821
252db7bea10b18820dfbda7824a535f739edeede5815120000a723e53eb00f4e;1;Western;2;Domestic;10024260;Spokane;US;PO Box 13056;Não informado;WA;99213-3056
461c685583bf2817ca681d9e1dd65b23d10f84d58260c5807b4ac9e576336cb9;1;Western;2;Domestic;10023275;Portland;US;PO Box 30659;Não informado;OR;97294
2efa98b1248768dd30785247a07753b40084d23c6eb3497ea3ebf2291f9337af;1;Western;2;Domestic;10005006;Boise;US;601 East Gowen Road;Não informado;ID;83716
839bc583d00f406178e6f199c1243c04a5b4e6bfc49e9069332525a457dffba6;1;Western;2;Domestic;10024262;Oakland;US;124 Hegenberger Loop;Não informado;CA;94621
e1d82bb4b960a7960573b523107e78a767dca2e45e2aa8be54ccbcfbccf07d46;1;Western;2;Domestic;10021422;Brea;US;3251 East Imperial Highway;Distributor #1111190;CA;92621
82d59e7e7a50d38ba91ce35f344bd13227eaf9f3df06215e0b39778e4e65dc00;1;Western;2;Domestic;10004256;Portland;US;PO Box 20505;Não informado;OR;97294
e6d72415268c50362381e851607a8a0f7867f49426fed15af1beda4ec1430e6d;1;Western;2;Domestic;10025778;Pomona;US;1143 W 2nd Street;Não informado;CA;91766
ff5f0930a5c07fd54eaa2e14dd7836f8cd9ba41a76960ae7a8a174a6bba0fd50;1;Western;2;Domestic;10021179;El Cajon;US;316 Millar Avenue;Não informado;CA;92020
2005befa91b0463515946844335c41b12f1178f12a47447cba1f1de1ed56f371;1;Western;2;Domestic;10025791;Prineville;US;PO Box 667;Não informado;OR;97754
f714d59eecd148e0e6f05a57588b0c39dc8c73617c0c8ce4ee23abdf2aecd475;1;Western;2;Domestic;10025033;Billings;US;226 North 13th;Não informado;MT;59101
8d658ae0fe2db5d6e81fb8a7d6351ab0bdbd99aca490f4e32da4aa3e70eb7de0;1;Western;2;Domestic;10025051;Anchorage;US;1301 East 64th Avenue;Não informado;AK;99518
fac3d735849f65616d8f1424a8316b504e79dd203b878798e81991c36700d4da;1;Western;2;Domestic;10024248;Portland;US;9440 North Whitaker Road;Não informado;OR;97217
5374fa3772c0a21a41482ce09430774baac853b89bc63e6f2ea4ee011242880a;3;Northeast;2;Domestic;10027572;Elma;US;2210 Bowen Road;Não informado;NY;14059
578e8379f815c0c8e38fea27dca1837c58afd6785084f9c8c1ebd3354e291bdd;3;Northeast;2;Domestic;10019105;Mechanicsville;US;6029 Mechanicsville Pike;Não informado;VA;23111
cd3baece28329a45250ac2d59bc1b695b158781a49991183b5bf6de133dea2c8;3;Northeast;2;Domestic;10006848;Fredericksburg;US;1101A Potomac Avenue;Não informado;VA;22405
1ccef84cd3ced0f00021e47f7844c2750d98fb81bb4d50c2ce93232969a68419;3;Northeast;2;Domestic;10023760;North Hampton;US;60 Lafayette Road;Não informado;NH;3862
dc678acaece874898ef23958da8e2f3b7c2581835dd7c4e4e1478020d9fbe77a;3;Northeast;2;Domestic;10022678;Richmond;US;PO Box 24217;Não informado;VA;23224
312e643be7f14cd87ab49b2d95c4a9735deb1bbb67570de6a8a7c999060f4137;3;Northeast;2;Domestic;10009662;West Point;US;610 Garfield Avenue;Não informado;PA;19486
526f86c7c58c3411a8188af14e94fcf5bfa5a973b348d2923618210772b66aab;3;Northeast;2;Domestic;10025771;Waldorf;US;Southern Maryland 4 X 4 Inc;2588 Old Washington Road;MD;20601
ab8d91fe9b997a4a9bf3c77e3680565f11fb03f91ffcf7d108518b62d2c31049;3;Northeast;2;Domestic;10024246;East Providence;US;580 Waterman Avenue;Não informado;RI;2914
ae4dc2f64926e4d1c886703e267236a61177c695dd8a75bd2bf734ec11512fd0;3;Northeast;2;Domestic;10019880;Somerset;US;New York PDC #20;Attention  Accounts Payable;NJ;08873-6750
87b50ff54fdd55ba5e373b67a61e40bd34bf9e9b4f630aa2bc6e253f64fe1fd7;3;Northeast;2;Domestic;10011198;Framingham;US;703 Waverly Street;Route 135;MA;1702
ff111cb9bc7883309078d7f6b6e8fa9aa11df2b1d7df843bdefcda2d85f3fd2c;3;Northeast;2;Domestic;10015783;Philadelphia;US;Attention: Anna Markert;3111 W Allegheny Avenue;PA;19132
93d82d041e0d68400ed24c6b406f318fd482759b7eb3daff3d1bcc8fe055eeb9;3;Northeast;2;Domestic;10020962;Mercer;US;7320 West Market Street;Não informado;PA;16137
358b043a3eb016625d625a40abc50c4e0eeb08cf61571be2076b3fe033f5b57a;3;Northeast;2;Domestic;10025247;Pittsburgh;US;390 Fountain Street;Não informado;PA;15238
fd4f0f6cdf341d1d27f76a3e848884ac442f282a300f5ad8f38c9578e50b19df;3;Northeast;2;Domestic;10014779;Fairview;US;PO Box 206;Não informado;NJ;7022
7a1a915f5f6637e984671fb12f7627391e205e9e4089f6fbe9f73b491eb86e9e;3;Northeast;2;Domestic;10027340;Salem;US;63 Bridge Street;Não informado;MA;1970
c4587b7948406f3db4028ed58b64ec7ab90b5dc4cf2ec9e87e3b4d4786d2e6a6;3;Northeast;2;Domestic;10018665;Wester Chester;US;1028 Saunders Lane;Não informado;PA;19380
047955962170b912dbe665007a5a0912862e3d55a7da49d45fcd48fef565c691;3;Northeast;2;Domestic;10009657;Lewiston;US;12 Lexington Street;Não informado;ME;4240
799478f0ff41f6e6ea42156c9cef9891f99133ed044a8e54f380eaebecd4778a;3;Northeast;2;Domestic;10010906;Frederick;US;5702 Industry Lane Unit B1 & 2;Não informado;MD;21704
7baade112bf8f5873600813ae2ee7762a3abbfc1e5b5794b248dc94e3685cfca;3;Northeast;2;Domestic;10011997;Roanoke;US;2177 Dale Avenue SE;Não informado;VA;24013
a67e1d2a3da157ce672ba1c167877ea28bf7d435856ca8ae280a1e106aaddc43;3;Northeast;2;Domestic;10022431;Vinton;US;845 Third Street;Não informado;VA;24179
1a550f7bdeeb8705d9ea16ea559e79f68a1f4ecebf9d219558dbbc791f17a8b5;3;Northeast;2;Domestic;10025062;Bedford Hills;US;731 North Beford Road;Não informado;NY;10507
0dcc19bbb8f52d50c3dc867ebfff52052ddc4ff74d93664aed26257267171f89;3;Northeast;2;Domestic;10020388;Glen Burnie;US;7216 Ritchie Highway;Não informado;MD;21061
f0415f8b5deec228b92742de65beb128dc1b1c88bc57625b01e04edfcecf6512;3;Northeast;2;Domestic;10002240;Medford;US;50 Mystic Avenue;Não informado;MA;2155
3922585df233eb2aa0fb9ea6515f1d013995568f706a9974f4b6c20897f83587;3;Northeast;2;Domestic;10008638;Milesburg;US;301 Iddings Street;PO Box 865;PA;16853
c92bb4aaa5fa7b05eb4cd47a7b4fd75b428b438008980e8656a76a97c820843c;3;Northeast;2;Domestic;10021470;Wrightsville;US;815 Hellam Street;Não informado;PA;17368
60c6d9fe51470c78125c7cd220f698b1e574de8479cc19049cda951ffbeaccac;3;Northeast;2;Domestic;10016303;Buffalo;US;60 Depot Street;Não informado;NY;14206
c7f48ab6d2402eb9d7b095ee516a501273f6164bfde8cdbe27bd175c2f8b82a7;3;Northeast;2;Domestic;10008134;Petersburg;US;23308 Airpark Drive;Não informado;VA;23803
560eba0b76fad78f16228d64b175f4da96461f5f396131f20ee70a43821dd76a;3;Northeast;2;Domestic;10025300;West Sayville;US;Attention: Paul Grady;105 Montauk Highway;NY;11796
f865f1ed4c2f0027929e380590932b670dff6cb9cf9b1a59006c03c4ae3bb6c4;3;Northeast;2;Domestic;10025549;Shady Grove;US;PO Box 21;Não informado;PA;17256-0021
70e5f900b8d4c4dc0cb4d8336f6cdcf37e1924235de22f0fb0451194d9d2476e;3;Northeast;2;Domestic;10008602;Wells;US;209 Sanford Road (Route 109);Não informado;ME;4090
00c14728fdb55dc3c618e9269277c0ff7887b75b5e929388597a2fbc18a7f3b3;3;Northeast;2;Domestic;10025038;Mechanicsburg;US;PO Box 568;Não informado;PA;17055
8bd7ef132a06deb5a6e3784453298d8a4b78d62003b624deeabbba8f04e5a052;3;Northeast;2;Domestic;10003720;Hermitage;US;2755 Kirila Boulevard;Não informado;PA;16148
b3ddd0ce78e0f70f7ddb3f96ca08244452cf1b208d1aae7afd2330826a88d2da;3;Northeast;2;Domestic;10021996;Milton;US;8 N Industrial Park Road;Não informado;PA;17847
8dee42821be2957e97467693568687dc2a9749590c5cc277fb6b3f6ce1e65fdc;3;Northeast;2;Domestic;10012715;Exeter;US;44 Tunkhannock Avenue;Não informado;PA;18643
53639bf1e1c8d0b31945c62782e8439c49c45cb67afd8de0510dba7d6c95cf2d;3;Northeast;2;Domestic;10002969;Manassas;US;12000 Balls Ford Road;Não informado;VA;20109
3a8d70c17f09b6e43b39c90591ab196464dc425e49769d8e82db8e56c9cc399c;3;Northeast;2;Domestic;10017638;Roanoke;US;Advance Auto Parts;Attn  Merchandise Accts. Payable;VA;24001
bb3bbea0abf5a7bfa14b57e7297d9e1dfce5f8cf97932b1a83fcee9d8af993d7;3;Northeast;2;Domestic;10007577;Stewartsville;US;2621 State Route 57;Não informado;NJ;8886
da70be49e1572207f2d2889f4c38f29104d504c3474deb25d87cb3fef36f5fc5;3;Northeast;2;Domestic;10025583;Nesquehoning;US;One Industrial Complex;Não informado;PA;18240
d8418ffd2c0083a708ec0bf3ed56b232f2d52a4cad51519a2d0430d83343081e;4;Central;2;Domestic;10025039;Mentor;US;9049 Tyler Blvd.;Não informado;OH;44060
6acb762f79bbd4473e9d88bc1063339353807b9ae03602affc390a50a63c3d8b;4;Central;2;Domestic;10000462;Hazelwood;US;6311 North Lindbergh Boulevard;Não informado;MO;63042
e6c0155bdf970bfc68805fc6208e6963adbaa21f20d0b2d8b941577d7c2a8c8f;4;Central;2;Domestic;10010969;Elkhart;US;317 North Main Street;Não informado;IN;46516
0bab7d0e20a5871400e49b2d5ef687a3a7235a6e1ee384f6bcdd00539c9815f3;4;Central;2;Domestic;10022252;Crestwood;US;13907 S Kostner Avenue;Não informado;IL;60445-2205
1521d2c92b11284ed8318ede4355a1d01ab3c9c55c8665f02b0ec347b0c7705b;4;Central;2;Domestic;10009643;Flint;US;4103 Holiday Drive;Não informado;MI;48507
ff0a1acc2cbb4acb0511cdf2613ce2fcc604ce807ee5ed1b0ce75d0e3a760f4e;4;Central;2;Domestic;10017553;Ottawa;US;PO Box 660;Não informado;KS;66067-3805
e1845e63d561610d522d0b71c4a4946d8a27d5dfbd72909619f89c088aaa82b8;4;Central;2;Domestic;10024541;Bedford;US;Americas Body Company;PO Box 46539;OH;44146
7ed4060a0a52ab137b1c2bea7f43e3d2b758f5ec2ebb52292d85bdb04acc0a03;4;Central;2;Domestic;10021223;Wayne;US;Michigan Truck Plant;38303 Michigan Avenue;MI;48184
3da06ee9046ff88dd310211b90e76a435c6587edcfe3beb4146d8feacdbc743a;4;Central;2;Domestic;10010717;Waterville;US;208 W Main;Não informado;KS;66548
b0657462dffafe8c554fcb39878db6c67e37da18600fcdd77a175d2b93fc4b67;4;Central;2;Domestic;10020446;Pontiac;US;Worldwide Purchasing;1999 Center Point Parkway;MI;48341
beee8e005d3544cc3831c254c5025333776788d70af93a549c20c3695fe895e6;4;Central;2;Domestic;10025291;Dover;US;217 West 3rd Street;Não informado;OH;44622
4d677fcd86b43e4315233e65f5ec39e5f2e5a119e19faf6bb936b17c4c74f5ac;4;Central;2;Domestic;10019942;New Castle;US;299 East Country Road 300 South;Não informado;IN;47362
890f7e2292ab95cc4b9a962a925046f535c3756beaa39d24fb6dc5848c953d5b;4;Central;2;Domestic;10016784;Pocahontas;US;PO Box 129;Não informado;IA;50574
2f75a99d3d85e9dbd43828dbc2f87024f4ce44a7129e1e6788f345f58fc8f9d6;4;Central;2;Domestic;10023785;Columbus;US;Defense Const. Supply Center;PO Box 16791;OH;43216
f150aba0ee4ab8d489d6abd2e484c827d4b44cf14a7fbae771715537f8084e09;4;Central;2;Domestic;10025021;Depere;US;1151 W Main;Não informado;WI;54115
53d46f71092d8c360397151d953322470d144c2dda598d72be98051a43cc2291;4;Central;2;Domestic;10022730;Warren;US;21533 Mound Road;Não informado;MI;48091-2991
a9f4d2b32d4aec3d9a640413bb4212bedd2736706f66d7327989bc67bd534d77;4;Central;2;Domestic;10021986;Livonia;US;S&PD-Special Accounts Sales;PO Box 537940;MI;48153-7940
b03f5cc9f1a5b313e0147ab2e006320d310fdd731a87d61e5dc6cb0cc6a0964c;4;Central;2;Domestic;10013238;Janesville;US;PO Box 5222;Não informado;WI;53547-5222
f1dbba227a767eaf56262ea945385e7c10ec326ba51eabd2ac8b8f0e4d629721;4;Central;2;Domestic;10019909;Shawano;US;500 Airport Drive;Não informado;WI;54166
87a825f0fdd2f1d850735008328cfd9f3413bfa3735c7810d912452d6756539e;4;Central;2;Domestic;10024255;Pontiac;US;Division Of Pontiac Michigan;17575 PP-CPDC;MI;48340-2956
e120171cb670b630437d171e793bbbc2c62e9edfaac32968e26efefadbb5f316;4;Central;2;Domestic;10022168;Cass City;US;PO Box 113;Não informado;MI;48726
93dad280d09a5d3ed3da7e68bc99bddebe2bd6e4fca66d9c3bb9412cf454ba52;4;Central;2;Domestic;10025269;Overland Park;US;Attention  Accounts Payable Department;PO Box 12990;KS;66282-2990
fa1f5de392bae7823d33642fbb142d316e6bb9782b4c30cd335b6af1e1e5e613;4;Central;2;Domestic;10026078;Bedford;US;PO Box 461090;Não informado;OH;44146
0bbf5a5416c59adee1b65323f23ea5c76b827dbf8591f52a405f40719c746165;4;Central;2;Domestic;10026291;Poplar Bluff;US;1880 N Westwood;Não informado;MO;63901
3010b1dcecfa76f507a63733af775e81111289c2b519dc46fe180e36ef03958b;4;Central;2;Domestic;10015824;South Bend;US;PO Box 7005;Não informado;IN;46634-7005
edaefe7911f1bed273517c9d58b836ef04bf07e232b6efc4b9a5c93f5c37bfad;4;Central;2;Domestic;10022490;Overland Park;US;Attention  Accounts Payable Department;PO Box 12990;KS;66282-2990
5deaa5f08784d84ecae0613b4303bbc8033960f239c4a8d882d4a632851f5b77;4;Central;2;Domestic;10027050;Milwaukie;US;3204 W Mill Road;Não informado;WI;53209
a82100d53fd8f1d1fefec59bd4c5bb5b6a6fd1aac761f4da1ad91e08af59cfcc;4;Central;2;Domestic;10026532;Garner;US;500 Highway 18 West;Não informado;IA;50438
22af947fda2f9f92bcb74bc9666f97a31563bd455172a5ede5a262d59d51316f;4;Central;2;Domestic;10016564;Traverse City;US;PO Box 2338;Não informado;MI;49685
a410ecc7a2feac6ef9b957840566eb99027f284d23e6c81605faabe67e7456c8;4;Central;2;Domestic;10022750;Watervliet;US;8300 Lane Drive;Não informado;MI;49098
88e45bce6753be532296a9904c4031b7e38babad90a443a47743142ced9bf627;4;Central;2;Domestic;10025571;Des Moines;US;PO Box 3283;Não informado;IA;50316-0283
4138362e9ec99885ab46265b041e6d6117882da3e232254409e4048f275e16d6;4;Central;2;Domestic;10021415;Indianopolis;US;100 Gasoline Alley  Suite A;Não informado;IN;46222
e08545126fbc21606861d889dda98e7c4852779f4003c908787e0c5555bb09aa;4;Central;2;Domestic;10025552;Southfield;US;Order Processing Group;25140 Lahser Road Suite 282;MI;48034
5f9281326f10de0a95b761cf09c07344af8ca9a7141dcb7c07308f83137bcab2;4;Central;2;Domestic;10010935;Sioux Center;US;877 1st Avenue NW;Não informado;IA;51250
2cc54881ada61de5d125a5ab607ccbf88e18f82c29d2c813edd71d3e63dd1a54;4;Central;2;Domestic;10000458;Saginaw;US;PO Box 840;Não informado;MI;48606
bed5cb2d7cd3fe6fa05458adb4280dc1e7e646c5459a81e6142c0318a052222b;4;Central;2;Domestic;10000474;Des Moines;US;PO Box 3265;Não informado;IA;50316
271879563ac90ff887e393ad85dfcd6cc4e2f7a9c76e3cfd6cc0fc9d1c2d15b6;4;Central;2;Domestic;10019665;Hammond;US;7940 New Jersey Avenue;Não informado;IN;46323
5ff7e7f3ef80de191aaed84a7fcaa5593bccd0013d157177ad39e072aa738856;4;Central;2;Domestic;10020915;McHenry;US;2600 West Route 120;Não informado;IL;60050
a96489dbe91b3da8180834051aaf8ec2d334cde6b26ef2bf52c5d817d54db003;4;Central;2;Domestic;10026055;Eau Claire;US;5100 Highway 93 South;Não informado;WI;54701
18fe61c937ce3aefd41f8d9e4de3546e272079e5e79196d5a6b435f612b1407c;4;Central;2;Domestic;10012425;Oslo;US;RR1 Box 9;Não informado;MN;56744
20aaa0c0e8deb5af6926f4f1afc8b22fb6b2370aa703fd8c184e3439846b0018;4;Central;2;Domestic;10021977;Overland Park;US;Attention  Accounts Payable Department;PO Box 12990;KS;66282-2990
5980e5c7fe24528c48cca4b38a40a115e49c285efdefa657fdcd97315714afe6;4;Central;2;Domestic;10014810;Canton;US;Attention: Accounts Payable Department;PO Box 8844;OH;44711-8844
eb3eec221b874156d8b621336b50ec803925b9962f579a2b7446962133ed21cd;4;Central;2;Domestic;10024010;Mitchell;US;Attention:  Accounts Payable;300 East Norway Avenue;SD;57301-7064
c8e44beefa2e602096106dcb59ccf15412d435a4361cb67968a9d8f0dd9ea666;4;Central;2;Domestic;10021139;Livonia;US;PO Box 3382;Attention  Accounts Payable;MI;48151
ac3a05218b00b29f2df7b3c206c6cdfe3aeea768665270766f11056dd375f07a;4;Central;2;Domestic;10009356;Cape Girardeau;US;Global Motorsport Parts Inc;PO Box 1179;MO;63702
050372c069e95a8717f38e832007f1858e34e893ab74917bbefcf8a9e9f9b49c;4;Central;2;Domestic;10024524;New Hampton;US;PO Box 511;Não informado;IA;50659
f73b1bb85033bd936bb32bd04786ef57b1a0368d343c122db512a4a76231e364;4;Central;2;Domestic;10024999;Andover;US;RR 2 BOX 9;Não informado;SD;57422-8811
1b8d16e110a0763784d56f05dca92c65b20a327d950b682684bceb0bff4769b0;4;Central;2;Domestic;10021668;Independence;US;13208 East 40 Highway;Não informado;MO;64055
3fc5cbdeb3720a27b2cd5fcccf519930522007dd852c2b9b4dbda605ef2f1ec5;4;Central;2;Domestic;10013472;Indianapolis;US;3343 Shelby Street;Não informado;IN;46227
d7978f2e21562c8a59c824044cf13d4bcf984a683b45f41ba356c5397bd40970;4;Central;2;Domestic;10027053;Raleigh;US;PO Box 68;Não informado;IL;62977-0068
8eeba99349052e4bc9d1188940e5fe460f4ea22ac6c2ad36bfa93b14d4894dfc;4;Central;2;Domestic;10007566;St Joseph;US;2106 South Riverside Road;Não informado;MO;64507-9799
f6b6b57751798c8cb3e4e27237bd8721ed398af33290aa54244ff30cceaf6917;4;Central;2;Domestic;10025251;Wooster;US;A Scott Fetzer Company;3201 West Old Lincoln Way;OH;44691
d111b5fbc3f80b8217d9237b10e30be4f3704451dd9072d56e6056bc773363bf;4;Central;2;Domestic;10022450;Overland Park;US;Attention  Accounts Payable Department;PO Box 12990;KS;66282-2990
2c07d5ea4b8594f52a5325267c200958b0d512d4be3b755139d72b8b532231fe;4;Central;2;Domestic;10017054;Newport;US;7640 North Telegraph;Não informado;MI;O
68049fc068a3ad6e744876b2e610ce5a7afa715349f7ffb50615a3d3601c2b56;4;Central;2;Domestic;10026522;Fairmount;US;4353 W 1900 N-48;Não informado;IN;46928
638bc2b646924201872c57fe64754afab18cc710aae455450f6a7e1481eb5431;4;Central;2;Domestic;10010914;Overland Park;US;Attention  Accounts Payable Department;PO Box 12990;KS;66282-2990
974294ac060764682e05aadc522030abfe4d91ea766589124f6a7a9ebb078c45;4;Central;2;Domestic;10014533;Aurora;US;Chicago PDC #22;Attention  Accounts Payable;IL;60507-2060
baf774610ace5a7323ebbac8a6a4d49bb862ab75cde9bd1c17a7275adc1add71;4;Central;2;Domestic;10019400;Valparaiso;US;861 West US Highway 30;Não informado;IN;46385
0b6611034fb21d010e10fb98cd45c07c05e82a3c914bd741e27bb4958f13683e;4;Central;2;Domestic;10025296;Sun Prairie;US;666  South Thompson Road;Não informado;WI;53590-2553
6cbce380b5639a96f58c5efba484aefbb3660dbb0aecda590361bc196ed44a99;4;Central;2;Domestic;10027356;Grand Rapids;US;910 North East 4th Street;Não informado;MN;55744
604cba90bc9eb50652ae46759933915a9a43dc7003b5ea7bf0d778e09f41dff2;4;Central;2;Domestic;10008593;Highland;US;PO Box 99;Não informado;IL;62249
4430e294ff896d359ffec739ba056cefd7ecf6cc048d025bb1a2c539600d9646;4;Central;2;Domestic;10020927;Sidney;US;One Cabela Drive;Attention: Accounts Payable;NE;69160
b315c522243fa81efd4b3a95d0f656ffd83d5060a8e40de86830e781bca8ff68;4;Central;2;Domestic;10015275;Marshfield;US;1601 East 29th Street;Não informado;WI;54449
75cc3bba1f2469b33a0bbf7fd1ca31b471f2441b956b2a2e00b7f99beb83e254;4;Central;2;Domestic;10013232;Milwaukie;US;PO Box 250825;Não informado;WI;53225
b118207142458ef9bfc51c589717969a98af70dbb87d7da2c0448e6b3b4ccb1d;4;Central;2;Domestic;10002746;Bensonville;US;1200 North Ellis Street;Não informado;IL;60106-1119
18efa2d513af921e70f63f52450cbedee396bdccfb17b121811bba976c1b4247;4;Central;2;Domestic;10007121;St Louis Park;US;5711 West 36th Street;Não informado;MN;55416
6a22a4c35893c1f4e0923c8f330eacfc5c99aa32e0aedce8006b6f5c79c0fcd5;4;Central;2;Domestic;10023003;Coldwater;US;400 Jay Street;Não informado;MI;49036
3ee1a5e7bb490b038866cc359e09e351edd328ce7632db07c1da472e69815562;4;Central;2;Domestic;10014264;Springfield;US;1935 S Campbell;Não informado;MO;65898
6a1cb7cf3eebd289854ba50420a32c5e38814b950766e4f3d4320981b259b1e9;4;Central;2;Domestic;10014469;Livonia;US;Accounting Department Service & Parts;PO Box 537940;MI;48153-7940
1b160781663f9c8ad719d287bf32eedb40fc05308a583e310e418a036d504fd2;4;Central;2;Domestic;10021485;Hamel;US;FOB: Clackamas;Attention: Accounts Payable Department;MN;55340-0700
39b1a36edb69b3cdb0ca1693a86bcafced2a3abc437ef07c83d5e328795131a7;4;Central;2;Domestic;10013765;St Louis;US;5821 Hampton Avenue;Não informado;MO;63109
a30ee43f2065fdc6a618484fdfe38bfabf49dc49889b0cb233e640c83bca8d0d;4;Central;2;Domestic;10019664;MOLINE;US;PO BOX 8808;C/O APSS;IL;61266-8808
0205c54aab4380293383f1c6ac19d467e4fc9731ebfad3a802247efcc0e27717;4;Central;2;Domestic;10023221;Overland Park;US;Attention  Accounts Payable Department;PO Box 12990;KS;66282-2990
4075d68a3fbd1f809297c18cc1c3ca7fcce51c0f5e1e68b0ef11ee73fdcabbae;4;Central;2;Domestic;10022423;Cincinnati;US;12110 Best Place;Não informado;OH;45241
57fc335d2097b9162347a01971fe51c5ce58e1e70a87dfa46965d1b1f184ce4f;4;Central;2;Domestic;10010974;Chippewa Falls;US;13296 County Highway 00;Não informado;WI;54729
1a99de8dcca8b6d61bf563a61899598409d49994f4cec295c9c4a94fccd8e143;4;Central;2;Domestic;10025036;Kansas City;US;1920 East Front Street;Não informado;MO;64139-1538
fedf0358bbdfd292d13789e34d5499e600d3d939d473c9838e3559349d208fd5;4;Central;2;Domestic;10012226;Troy;US;Worldwide Purchasing;1996 Technology Drive;MI;48083
61f8aa2e7481e31e46cafa626ac2a34eebbf168ff2c0436adccc9ba0ae378baa;4;Central;2;Domestic;10013509;Joliet;US;207 North Scott;Não informado;IL;60435
037b69d27e33c3e130dce560f06f12c39cdec67c6a6944aad886502d1fc3241a;4;Central;2;Domestic;10023715;Plainfield;US;Central Division;PO BOX 600;IN;46168-0600
56dcb8ca31070a126df125d495b50cfd5b61be104e4108b09ac19c2de5514a79;4;Central;2;Domestic;10015495;Kansas City;US;Attention:  Accounts Payable;686 South Adams;KS;66105
275f64a33ee4ba0f328261b47bcc5ef9033541bfd204cba0fcec53cdc992ad6f;4;Central;2;Domestic;10018644;Overland Park;US;Attention  Accounts Payable Department;PO Box 12990;KS;66282-2990
b1b9239bc61a3b560823a7536e9f269872ed7790a49af64fbe965702eaf79934;4;Central;2;Domestic;10018871;Livonia;US;Field Accounting Department;PO Box 2003;MI;48151
47a4f5bb8e1b5e8fce7f9b98f58d209b95926ceda5f5a3e3735889735d2f4af8;4;Central;2;Domestic;10025061;Canton;US;PO Box 80509;Não informado;OH;44708
326ff72fd36be2196890104c750a28789cf0d5f7846f311ef409abbd0252af82;4;Central;2;Domestic;10006093;Evansville;US;PO Box 5364;Não informado;IN;47716-5364
1a6a0c1af5763e1ef48767f085fdcf0616505c67cb16dd3b390a4c47892a382a;4;Central;2;Domestic;10000481;Chicago;US;Box 5516;Não informado;IL;60680
6afa7005366ab69e8633bc313f6364f4afbbe3c75c28ed2c42e73462ca3c3a26;4;Central;2;Domestic;10018867;Flint;US;2400 R E O Drive;Não informado;MI;48507
47f16ce5383c0d7c6913617748560d9613217c382db9ef6d294fb6f7d4973a90;4;Central;2;Domestic;10026560;Dearborn;US;Central Accounting Service;PO Box 6005;MI;48121
96c3623bc37c3f32bfd1f0bdab7d1b176390d59ffec67c189a48ab426a24b99d;4;Central;2;Domestic;10027583;Morton;US;Attention: Charlene Hoyer;500 North Morton Avenue;IL;61550-0474
7e1eff67c6a21a7661026de6839f34b02c56e23d89efe03e465873a344a03841;4;Central;2;Domestic;10020909;Canton;US;Attention: Accounts Payable Department;PO Box 8844;OH;44711-8844
c4c623bf66f87c57926943ae7f75826ce1f3c643b0443760798daa4da4f67307;4;Central;2;Domestic;10025287;Brookfield;US;PO Box 366;Não informado;WI;53008
bf03292cb0676894b5a91833a61f5001affe3ad731bb3e8d0f1145ff966f1192;4;Central;2;Domestic;10022444;Livonia;US;Detroit Technical Center;37002 Industrial Road;MI;48150
98d7ab369b2cd662a1e33f954136e19a0d0cdf149e427c9e2bc11cfc92244be9;4;Central;2;Domestic;10020390;Lansing;US;16241 South Us 27;Não informado;MI;48906
dd091fc51daa262e1639c393dc0a022b742319684927cfa7ddd27708e260ae33;4;Central;2;Domestic;10024550;Appleton;US;PO Box 2017;Não informado;WI;54913
31933779bb65b1b4fd4ec550747ef4176bd3464f4df372ab3cdc3fa4462b864b;4;Central;2;Domestic;10025252;Elkhart;US;PO Box 4405;Não informado;IN;46514
653486a5b043b4be687b3fbd7a02c5869da96d75f3b1efe83458edeb10c7e1ac;4;Central;2;Domestic;10019682;Lennox;US;PO Box 409;Não informado;SD;57039
c34ed678287ba4600e0c3b4fce01ec8317a30fd2ecf586a2693ab08c9b99a67b;4;Central;2;Domestic;10017585;Milwaukie;US;11811 West Silver Spring Drive;Não informado;WI;53225
04998d3dd598cdaaf1570be79218f425bb52a3368b5495ab44c8ce406c67ea48;4;Central;2;Domestic;10020445;Rapid City;US;PO Box 80;Não informado;SD;57709
c617a33bb1e47b0ea894159cb36328c0b0d67aa0f8347f808a6b14addbcacb71;4;Central;2;Domestic;10009642;Joliet;US;812 Draper Avenue;Não informado;IL;60432
3de9354f0b502566d09f8f9782e386d644c9922b7cf9cc5d6c7bb7763c9f4d76;4;Central;2;Domestic;10014803;Grand Rapids;US;3056 Eastern Avenue SE;Não informado;MI;49508
c5ad8dbeeb2cb84bc9483096711371451cecb31680d8deff9f6ba7a5cfc70f02;4;Central;2;Domestic;10021231;Middlebury;US;PO Box 460;Não informado;IN;46540
ba23a7c9161c74edbd440c50acbc7e9670329a6a54d6b668492264453aaf678d;4;Central;2;Domestic;10017072;Chicago;US;4200 S Morgan Street;Não informado;IL;60609
29179cabfa1ba02f47908bab6ed15adfd519f058ed5b802fa22a35346062e866;4;Central;2;Domestic;10024006;Columbiana;US;PO Box 57;Não informado;OH;44408
f9363caa9e7f4c7848211dc2155c0e8c47af6452a72471eb19c41de9d71102a3;4;Central;2;Domestic;10026606;Dearborn;US;Central Accounting Service;PO Box 6005;MI;48121
f66683ff5d2f3d4d240d86c704ffa621bab7ddd346a200b4d6d93afece1dc94a;4;Central;2;Domestic;10009156;Attica;US;DBA Badlands Off Road Park;3968 North Xavier Road;IN;47918
bd1d08d3c355850790bba33b74fde02e552d330812ebde535a9ef3833887ab63;4;Central;2;Domestic;10016334;Overland Park;US;Attention Accounts Payable Department;PO Box 12990;KS;66282-2990
3536f587b07b6fe592ec8035cbd5d280d4175b57c1243eaf7b062eb98e11a3be;4;Central;2;Domestic;10016045;Monroe;US;1051 West 7th Street;Building # 2;WI;53566
25eebdace39037c0f06b23eafa31cb75aefba3412c42339413e28ad78aea00d9;4;Central;2;Domestic;10017036;Eagan;US;580 Yankee Doodle Rd Ste 1200;Não informado;MN;55121
8e93e08163757783175b2cbbf8e9f114ba5059af61aad17cbe5f45b34288f84f;4;Central;2;Domestic;10023023;Thief River Falls;US;600 South Brooks Avenue;Não informado;MN;56701
7c4a0710e3ca68063193da4549acd12d68217fa167dd98ae9b8b8c337de64e52;4;Central;2;Domestic;10016807;Overland Park;US;Attention  Accounts Payable Department;PO Box 12990;KS;66282-2990
3452ce22db893960355c020efa297a1aec81ea966b45be73143d167978d45321;4;Central;2;Domestic;10009676;Kalamazoo;US;167 East Kalamazoo Avenue;Não informado;MI;49007
1ebf7d8b236f6fc215bbf652a203076a73c824f9a3234793e4534d1a53123ab6;2;Southern;2;Domestic;10025249;Memphis;US;7221 Highway 64;Não informado;TN;38133
fd8f2920a41d9151d57cc914006d15064b650f6b9dca17701f4f8f5d9eb05fae;2;Southern;2;Domestic;10013252;Irving;US;Dallas PDC #15;Attention  Accounts Payable;TX;75016-7728
b74a59621ccf0a85de3aab3d4f9c759d104142c60df7ba224a83da65d9fa52b1;2;Southern;2;Domestic;10022249;Shelby;US;201 Old Boiling Springs Road;Não informado;NC;28152
2dfd2ee0ccaba9799b58d5f90cd8936fa9c52dda700643f5e689def01ca38845;2;Southern;2;Domestic;10010970;Irving;US;1477 E Highway 356;Não informado;TX;75060
fd02821119ca77d495f0e16763f353ea5b7e1d0c13c6366dbb7810316da4c670;2;Southern;2;Domestic;10016549;Jacksonville;US;PO Box 6307;Não informado;FL;32236
1c4dd70b07be04c1ef276dc38bb5fde8bc70f3051f91a7ee02a279a2434eb1ae;2;Southern;2;Domestic;10012422;Saginaw;US;PO Box 510;Não informado;AL;35137
5485a82e9a5a67cb7a1d99d5e1d19f9860bc3fb9f2659b6684fead300c0b5a55;2;Southern;2;Domestic;10018623;Laurel;US;17 Perry Road;Não informado;MS;39440
31e33df8ab4722ffe93649d4eb2d3ec1ed398e4e939c67f0f67cd1313da3ffe3;2;Southern;2;Domestic;10018580;Beaumont;US;PO Box 790;Não informado;TX;77704
a2293ab2c84127131daac7c1ece123fb448ba72e680af2e379ef8e4b7b3df6eb;2;Southern;2;Domestic;10025814;Houston;US;5300 Glenmont Drive;Não informado;TX;77081
320ba3d73025a44a06d4a5bebe02ceeb9f58027c5953c368744e4e34a46759eb;2;Southern;2;Domestic;10020184;Smyrna;US;Corporation USA;Nissan Drive;TN;37167
fc1f00f0007fd39dbe4861f16f8a9044ba64921585a18d9a6a502b77349aaae6;2;Southern;2;Domestic;10019879;Duluth;US;3564 Buford Highway;Não informado;GA;30096
34c99954b9c086a70ae6b2016b03d6c873bbb8215918b647505512bcde5ef5e2;2;Southern;2;Domestic;10021175;Johnson City;US;PO Box 5418;Não informado;TN;37602-5418
44ba52b40237bff3093a6da7a8602b62c0a76df30056e5ec2be8a44111e6d467;2;Southern;2;Domestic;10009907;Elizabethtown;US;PO Box 2143;Não informado;KY;42702-2143
265719153790e9002d51688e5edce924e3461c805b0c92e59ec6d3363fde5e1c;2;Southern;2;Domestic;10023241;North Little Rock;US;7700 Counts Massie Road;Não informado;AR;72113
8a10e4ea7c06b8a9eaea96a45ed33d9a7028822757e8a27f8ed2c2c782faf09a;2;Southern;2;Domestic;10023524;Clemson;US;PO Box 1006;Não informado;SC;29633
e26b757550050a22cc47285e5c7be803fd6460d17bde636ea1f1925795c40524;2;Southern;2;Domestic;10026062;Houston;US;2301 Central Parkway;Não informado;TX;77092
c3d91ae46474f9c5bec3c217d3f888bac64d7ed9fcb7853cef5c7697a030d54b;2;Southern;2;Domestic;10023793;Holden;US;PO Box 249;Não informado;LA;70744
2b34ef3cccbb2ecdcb940e3df9232418df998680cfbfef414409d20aa5ec938a;2;Southern;2;Domestic;10006862;Pearl;US;4410 Highway 80 East;Não informado;MS;39209
98536b0c44fab50782de9ec177d0e53c191e1463f597045be3380cacaf071142;2;Southern;2;Domestic;10022732;Lake Hamilton;US;PO Box 900;Não informado;FL;33851
5c4f3cfd3c29624cdc39cfc9757b20184ac9507e207d8c94bb7044f30d006a6e;2;Southern;2;Domestic;10024009;Tulsa;US;PO Box 582510;Não informado;OK;74158-2510
849c930efc9d94388c0878e4b0646705cca6fb4ace0c21f33e40c90060f57544;2;Southern;2;Domestic;10017576;New Orleans;US;PO Box 10455;Não informado;LA;70181
6e479aafd8539f3e56dcc46ce84c9da6ff55bf352209310b39f6bde8a169669b;2;Southern;2;Domestic;10013188;Charlotte;US;PO Box 36409;Não informado;NC;28236
f167c78ea1300fa38fed13c4f2adc8e580770e19372b78c8005dd01ab8824bec;2;Southern;2;Domestic;10027575;Dallas;US;10400 Plano Road;Não informado;TX;75238
40cc925f5db9da78b3c034081601384219421860854428b13b97716a1f648ed6;2;Southern;2;Domestic;10000601;Creedmoor;US;1550 Aereli Avenue;Não informado;NC;27522
a100495387157fc751b27f2700bbe2482bd7b2812ee1e7ac10ed4ec6bf50d492;2;Southern;2;Domestic;10007564;Cleveland;US;1287 US Highway 59 North;Não informado;TX;77327
16f4911d255aa2b46a8f8b3967612f2dc0dc30117282f9915f802a18ac151845;2;Southern;2;Domestic;10019617;Spring;US;2445 FM 2920;Não informado;TX;77388
11958255258dc845e92f3b47d3cafe5169e741708d0a970d6f5ff9a0f6af11bc;2;Southern;2;Domestic;10023447;Tulsa;US;Attention:  Accounts Payable;1624 North 71st East Avenue;OK;74115
d86d1009980ae29c4d1ba869d8d86875cbf23292aa24acaebf4a03ab8c1d17c3;2;Southern;2;Domestic;10007123;Little Rock;US;PO Box 194255;Não informado;AR;72219
f9fabe94b15bd910bfa7f01cc54aa2a918b970677f0b802c28c787307bbac971;2;Southern;2;Domestic;10022764;Ocala;US;2610 NW 10th Street;Não informado;FL;34475
193167b6c22dc9f3b3e26a119bfd02cd5ce091190d70321d4c503ff80c8ae0ff;2;Southern;2;Domestic;10025560;Cramerton;US;125 Hampton Ct.;Não informado;NC;28032
fe293427b7892218853c525af4ace9b1cad9763921869e71725fbd816ca60b87;2;Southern;2;Domestic;10014739;Tulsa;US;Division of Parkhurst;15051 E Admiral Place;OK;74116
a44dbef1cb3c53db1e08312dff121269f2b5f2956fe002a27580320c935ce194;2;Southern;2;Domestic;10019150;Jacksonville;US;Jacksonville PDC #21;Attention  Accounts Payable;FL;32241-3017
5ef8b07cdb7ca0163794a669aabc23a1120d0cfd9f2415380006458fc8be5805;2;Southern;2;Domestic;10023783;Pine Bluff;US;PO Box 7647;Não informado;AR;71611-7647
6e70275b6cdadfdbc3a243ec8d7ae66e0513bbb7dcdaf547092edb5c8b6c48e0;2;Southern;2;Domestic;10025243;Longview;US;PO Box 5308;Não informado;TX;75608
5cf09a3787ac979b90edbde47a3043f04678666b318a6334e86e6e9b8cf1609a;2;Southern;2;Domestic;10017314;El Paso;US;8901 Montana Avenue;Não informado;TX;79925
a3eb058d918e31c1825b95eb75663c85cebd70e18bc4925e34c057474327bb5e;2;Southern;2;Domestic;10023471;Odessa;US;915 West 42nd;Não informado;TX;79764
4a3b1b8a38fb584e4907599bcb3d3bfbeed6043b5c132077da7bc3229aea2e1e;2;Southern;2;Domestic;10007122;Buda;US;22015 South I-35;Não informado;TX;78610
8c8cac9fb9190fb651d81e2c84a99912a8b5db24fe95c051b46dedf847bdd1fd;2;Southern;2;Domestic;10025040;San Antonio;US;6127 San Pedro Avenue;Não informado;TX;78216
36c4b50e113cc2a0c5d33d43def115d1f3fa082089042ac9b1d6ac1bac148b10;2;Southern;2;Domestic;10009697;Orlando;US;4455 Dardanelle Drive;Não informado;FL;32808
e1a3a42c23317effbb1be15d9a7031a47c7ce664059659056c6c421725efa1f7;2;Southern;2;Domestic;10024725;Jasper;US;PO Box 174;Não informado;TX;75951
ca17d3cbdc1ddb923cbf7d4274eb587d1da0da07d6ef9883554d5ad091055f9e;2;Southern;2;Domestic;10004302;Baton Rouge;US;9555 Airline Highway;Não informado;LA;70815
f620516ee7089a2f618d40d2e69c79b7886af8e6615dfa51a6db8500b9e5bca1;2;Southern;2;Domestic;10026581;Savannah;US;PO Box 22249;Não informado;GA;31403
a15280ef7f2f46b0172c3f3b986b74d36497e3fba95100591b1cc57eb319ae6a;2;Southern;2;Domestic;10010912;Fort Smith;US;PO Box 849;Não informado;AR;72902-0849
529544e56e71f50dcb1954cfe7f417fe96d70d1a1753d1cf149c300c744c12c2;2;Southern;2;Domestic;10014804;Shreveport;US;Attention: Ann Borden;PO Box 31435;LA;71130
5d50688818fc57625f5acf02dfc0c48d0018bd3a1552cd987af1b34878119026;2;Southern;2;Domestic;10008596;Springhill;US;PO Box 578;Não informado;LA;71075
85ba1d9462edddff265004bc7b8bccbea8cd59034aafcf6af1b63be8b9770de3;2;Southern;2;Domestic;10021936;Louisville;US;7779 Dixie Highway;Não informado;KY;40258
e3b9d69f6f0e4d6a7f7805c19852913c356f2a91578b6605d32b1f337646a6bc;2;Southern;2;Domestic;10026839;Greenwood;US;1201 Sycamore Avenue;Não informado;MS;38930
b49c880378099d21abb8ddf6665ae49b24f1414b2b4673018bb4d743f2752f28;2;Southern;2;Domestic;10016542;Greenville;US;Greenville PDC #23;52 Bruce Road;SC;29605
d8562809d754af370831c8f47dbe31bc809dc77c2d6a2aacfd8990b6ad1037b3;2;Southern;2;Domestic;10021145;Brookhaven;US;1127 South First Street NE;Não informado;MS;39601
25cd934fe98260eaefa8979625fbface833ace55ff021e39ecbea7d15e463c13;2;Southern;2;Domestic;10025285;Chattanooga;US;2401 East 31st Street;PO Box 72638;TN;37407
a6bea62c4e1abdc43684b7e62e76c1555c84a73a2c018a9780debaf622b7aa03;2;Southern;2;Domestic;10020914;Calhoun;US;PO Box 547;Não informado;LA;71225-0547
225b9e2de0f98546279d89b9af1e9e85c77349ea7ba9df99be745c541b8e0066;2;Southern;2;Domestic;10016047;Nashville;US;975 Main Street;Não informado;TN;37206
37efe732d53e72f2d8c172a10bccb4cd83f644fdd5637651c39c0ce0d3d76b2b;2;Southern;2;Domestic;10023538;Fort Worth;US;Attention: Accounts Payable;4900 Alliance Gateway Freeway;TX;76177
2979bf7bc324871d9a8245ba073399e9cef6bd933f5327a3e1f08b513196c89b;2;Southern;2;Domestic;10002765;Hialeah;US;4760 NW 165th Street;Não informado;FL;33014
78f10ec77e644b0eb24550d352c34091107f4e7fe47280e44c94308958ede79b;2;Southern;2;Domestic;10024499;Houston;US;8302 Jet Pilot;Não informado;TX;77075
c2142dc232ad9ded2e198c3a2f43b6591bbb7781c3c9756ca8c8d722362432ea;2;Southern;2;Domestic;10000475;Charlotte;US;5745 N Tryon Street;Não informado;NC;28213
cdbe62a76611ee37eb2c5c825bbb2a4d69a3ecd93707d4c78402cac672e2d384;2;Southern;2;Domestic;10016588;Schertz;US;6025 Corridor Parkway;Não informado;TX;78154-3214
6764ebf19d74224efe0e2426edbf690b242b59f059baa100f990e7e301955db0;2;Southern;2;Domestic;10022470;Ormond Beach;US;Attention: Linda;100 Business Center Drive;FL;32176
674e53fbf50c255458337a623e95c746912d2bfc99ae36a31bbd206579b5e202;2;Southern;2;Domestic;10023759;Birmingham;US;106 B David Green Road;Não informado;AL;35244
efc84d3fb6de6d270ddeb723d7110b33b24f1397b64bd1f58a2bef7d652fd3df;2;Southern;2;Domestic;10006805;Miami;US;1801 NW 82nd Ave;Não informado;FL;33126
8149df99ca708ba674b7aedfb83360d43050215f35e622772ebfb228d895a286;2;Southern;2;Domestic;10009654;Brownsville;US;904 Billy Mitchell Boulevard;Não informado;TX;78521
43f439c47aee08e2e8bae65a6aa3745fad916c28f1191c62fc8b8e710d5baa02;2;Southern;2;Domestic;10010897;Whitehouse;US;PO Box 588;Não informado;TN;37188
3ab5b07dd2c2d10ec6c47554d7ed68ea05ca58d70c32bf263a3b5f6b78ae95e0;2;Southern;2;Domestic;10020684;Montgomery;US;5415 Lamco Drive;Não informado;AL;36117
d0281cdde27259bd6ffa3559cc54c0d30c258f9563c2d74ee33bfad342b6124f;2;Southern;2;Domestic;10006037;Miami;US;7225 NW 25th Street;Não informado;FL;33122
807613f7679a5204c1b7f47afe20fbfbf0c13e4d50ca6b0439efcbf80290cc5d;2;Southern;2;Domestic;10002244;Statesville;US;Spicer Clark - Hurth Off Highway Div;1293 Glenway Drive;NC;28625
8dfaf2fe26bc845e20f8048d17252abf5bc0394240a4f82afbf8ffcfd4f65722;2;Southern;2;Domestic;10025302;Tulsa;US;4345 South West Boulevard;Não informado;OK;74107
83375ca0601ec0046396fb142e2cbe15a0371cf1bc29767f367a57ae723a1d72;2;Southern;2;Domestic;10009623;Gretna;US;2125 Whitney Avenue;Não informado;LA;70056
793ef35b92392a332c8f6687fc1217f9a2e7032a5b2ceb9a3e1a95dca5c5949f;2;Southern;2;Domestic;10025558;Little Rock;US;6104 Young Road;Não informado;AR;72209
11bcb208c4f036a08c99e2a6f1b79d9f621ea922b00527854b9eb11fca1bd141;2;Southern;2;Domestic;10023235;Houston;US;7600 South Santa Fe;Não informado;TX;77061
f23185331a2236615862c01d3f618bc9f18a458d3855564243571a7ea6d848e9;2;Southern;2;Domestic;10011734;Atlanta;US;PO Box 19858 Station N;Não informado;GA;30325-0858
771a893cb48290dbe7a7ead391a18c01f7fda2184ce10dea04922bd428e1341e;2;Southern;2;Domestic;10025758;Oklahoma City;US;4532 Enterprise Drive;Não informado;OK;73128
1f8adaf0a2193e6e20b4590f617824779397b47265b67184f96b6a09ef9cd001;2;Southern;2;Domestic;10021911;Te Rapa Hamilton;US;Cnr Avalon Drv & Tasman Road;PO Box 20077;MS;Não informado
1f8adaf0a2193e6e20b4590f617824779397b47265b67184f96b6a09ef9cd001;2;Southern;2;Domestic;10021911;Tupelo;US;PO Box 2187;Não informado;MS;38803-2187
6106cea604dd4a844cea077ada57a5b502425970cf4748fc7462b45e8f5fca0b;2;Southern;2;Domestic;10022725;Norcross;US;1723 Webb Drive;Não informado;GA;30093
1055e71246b9a710d342702a04e8cc4161bfe33e0c736439f9622c1717506c79;2;Southern;2;Domestic;10027560;Odessa;US;3356 Kermit Highway;Não informado;TX;79764
7aa4e3803af3f74528f3225b0238fc4433a47cde0ca1f634c8c82c7133e8420e;2;Southern;2;Domestic;10025515;Jackson;US;3650 Bay Street;Não informado;MS;39213
49063138317054562a1d0f23d60574de4a00779dcb247efa5777b987a7dcbcbf;2;Southern;2;Domestic;10021459;Olive Branch;US;Memphis PDC #19;Attention   Accounts Payable;MS;38654-3703
ccf62e8037fff526562235e52b329245228e0fed38a171df9a231b0b48b8c6d3;2;Southern;2;Domestic;10002489;Villa Rica;US;PO Box 266;Não informado;GA;30180-0266
ac7890cbc8d83c549a1d52da0bb383efa52fdff6eb6a578c9e5d647f104962d0;2;Southern;2;Domestic;10020639;Tulsa;US;PO Box 3445;Não informado;OK;74101-3445
af4f39717aef5e7c498696071cf30c6bbf1e6c18cc4e93b901f737a7ecae3e13;2;Southern;2;Domestic;10009660;Augusta;US;PO box 204658;Não informado;GA;30917-4658
f6f7785191fa81b82d84d959a50a10d15d3376b612de7bb8512c2530e31b6f10;2;Southern;2;Domestic;10023516;Miami;US;2900 Northwest 73rd Street;Não informado;FL;33147
3d44949f3a5008053e32446ada01e87087631e2865655843fbc38607b02bb870;2;Southern;2;Domestic;10026348;Mebane;US;PO Box 220;Não informado;NC;27302
7a7aac54bc0e1553f78616b79b8beed22a7098b9bedd2c40648512bb61d4eb25;2;Southern;2;Domestic;10023244;Cleveland;US;PO Box 899;Não informado;MS;38732-0899
9c74f3d10f462a2280fc10fb97ed3fe2824d3b2412694ac20568b80f24ff762e;2;Southern;2;Domestic;10026299;Dallas;US;334 North Hall Street;Não informado;TX;75226
7e31a71b352b632af48715f857a3028e13c88afadeece27d36db8f7fabb61548;2;Southern;2;Domestic;10009679;Meridian;US;2400 Highway 19N;Não informado;MS;39307
445065d1c2c3ab7a57471b80c486f49262e076ddb28eec6115da329746efc88e;2;Southern;2;Domestic;10000478;Little Rock;US;8120 E Doyle Springs Road;Não informado;AR;72209
7807af05f1df291308e7e8ed88c14cfbd0324b000f09ee24dfe88a339210d50b;2;Southern;2;Domestic;10007355;Amarillo;US;3601 Amarillo Boulevard East;Não informado;TX;79107
f07d30d0ccb61ab46971c160f11c07314848c47ce8030401b51a54de9a2077eb;2;Southern;2;Domestic;10023509;Tampa;US;513 West Waters Avenue;Não informado;FL;33604
959f5d910e53c5acc8b03727c4df9a46925d338104cc2db34a89a81e3e3bdeca;2;Southern;2;Domestic;10019897;El Paso;US;7210 Gateway East;Não informado;TX;79915
c88d15ead388a3831885f83aae8f56de526fa2922ca8be1a83ddccdf6b71ea79;2;Southern;2;Domestic;10025250;Ooltewah;US;8503 Hilltop Drive;Não informado;TN;37363
c4cf804908f00477e83c48e4ff75b25c513520e84b1ccdfac23c8a9ad36e39f3;2;Southern;2;Domestic;10016548;Mobile;US;4700 Rangeline Road;Não informado;AL;36619
fc9276b5744d00d76d3a4d472389877c100741f215edf0e901626b5ed2c95a83;2;Southern;2;Domestic;10003795;Baton Rouge;US;PO Box 2484;Não informado;LA;70815
407ef9636a5fe9ffa7701559247babaf655103d04848e17ab9a21a1af53e8d33;2;Southern;2;Domestic;10025495;Birmingham;US;PO Box 100603;Não informado;AL;35210
3a821594cdf67eb1c814b25651492d1813441ff24219eda74f2ae9ea7e96ce0f;2;Southern;2;Domestic;10020413;Okarche;US;PO Box 447;Não informado;OK;73762
ee4baddcce61e92ca65dda266b95fddc710e00943bf525a97ac89d8e41451100;2;Southern;2;Domestic;10027348;Tampa;US;6501 Adamo Drive;Não informado;FL;33619
703f8eca7f85794ee079844440484bebf82aec11c5344d0dd3fe186f355b73b6;2;Southern;2;Domestic;10000460;Goodlettsville;US;709 Rivergate Parkway;Não informado;TN;37072
967af8f2487a2da2f8a8636fdf6102579f8cdf1f64772eabf5417c32fb1878dd;2;Southern;2;Domestic;10011521;Okolona;US;32722 Highway 45;Não informado;MS;38860
32942a2fe2bbc8facb42ec80ef950dd6993f19a516e6cfe17d4587cb5b4e75a5;2;Southern;2;Domestic;10026336;Columbia;US;PO Box 26;Não informado;SC;29202
